{"type":"FeatureCollection", "features": [
{"type":"Feature","geometry":{"type":"Polygon","coordinates":[[[5.2611,60.4413],[5.2803,60.4091],[5.2759,60.4076],[5.3013,60.3901],[5.3042,60.3885],[5.3166,60.3837],[5.3224,60.3816],[5.325,60.3805],[5.332,60.38],[5.3351,60.3801],[5.3419,60.3807],[5.3438,60.3811],[5.3453,60.3795],[5.3464,60.3792],[5.3457,60.3783],[5.3466,60.3777],[5.3514,60.3764],[5.3521,60.3761],[5.3515,60.3746],[5.3536,60.374],[5.355,60.3738],[5.3577,60.3721],[5.3596,60.3719],[5.3603,60.3711],[5.3614,60.3713],[5.3633,60.3711],[5.3646,60.3729],[5.3664,60.3738],[5.3675,60.3747],[5.3739,60.3763],[5.3867,60.3746],[5.3967,60.3732],[5.4064,60.3724],[5.4071,60.3727],[5.4111,60.3717],[5.4127,60.3815],[5.4068,60.3848],[5.4082,60.3942],[5.4111,60.3984],[5.4095,60.4055],[5.4067,60.4071],[5.4013,60.4105],[5.3939,60.4145],[5.3909,60.4148],[5.3869,60.4162],[5.375,60.4162],[5.3665,60.413],[5.3569,60.4164],[5.3497,60.4189],[5.3407,60.4238],[5.3221,60.4291],[5.3133,60.429],[5.3003,60.4342],[5.295,60.4343],[5.2923,60.4358],[5.2931,60.4362],[5.293,60.4373],[5.2913,60.4388],[5.2879,60.44],[5.286,60.4401],[5.2846,60.4399],[5.2814,60.4414],[5.2772,60.4437],[5.2611,60.4413]]]},"properties":{"bydel":"Bergenhus","kommune":"Bergen","osm_id":114938}},
{"type":"Feature","geometry":{"type":"Polygon","coordinates":[[[5.7266,59.0333],[5.725,59.0364],[5.7224,59.0404],[5.7156,59.0494],[5.7372,59.0599],[5.784,59.0602],[5.8409,59.071],[5.8618,59.0812],[5.7979,59.1014],[5.7783,59.1283],[5.7117,59.1514],[5.5983,59.1904],[5.538,59.1662],[5.499,59.1283],[5.5454,59.0724],[5.6257,59.0276],[5.6835,59.0145],[5.7314,59.0244],[5.7266,59.0333]]]},"properties":{"bydel":"Rennesøy","kommune":"Stavanger","osm_id":405679}},
{"type":"Feature","geometry":{"type":"Polygon","coordinates":[[[10.9282,59.9797],[10.9273,59.9813],[10.926,59.9825],[10.9257,59.9837],[10.9231,59.9842],[10.9182,59.9846],[10.9161,59.9838],[10.916,59.9833],[10.9177,59.9793],[10.9168,59.9775],[10.9162,59.9771],[10.9141,59.9769],[10.9133,59.9752],[10.9118,59.9752],[10.9109,59.9765],[10.9117,59.9772],[10.9108,59.9779],[10.9093,59.9768],[10.9089,59.9755],[10.9082,59.975],[10.9065,59.9731],[10.9055,59.9731],[10.9044,59.9724],[10.9025,59.9717],[10.9006,59.972],[10.8994,59.9718],[10.8975,59.971],[10.8938,59.9704],[10.8915,59.9695],[10.8903,59.9684],[10.8895,59.9659],[10.8895,59.9647],[10.8901,59.9632],[10.889,59.9621],[10.8879,59.9627],[10.8863,59.9627],[10.8856,59.9632],[10.8861,59.9639],[10.8843,59.9653],[10.8845,59.9667],[10.8833,59.9676],[10.883,59.9684],[10.8803,59.9694],[10.881,59.9701],[10.8803,59.9708],[10.8793,59.9731],[10.8776,59.973],[10.8773,59.9724],[10.8781,59.9717],[10.8776,59.9705],[10.8765,59.9704],[10.8758,59.9717],[10.874,59.9726],[10.8758,59.9731],[10.8759,59.9741],[10.8754,59.9759],[10.8747,59.977],[10.8696,59.9769],[10.8689,59.9745],[10.8678,59.9728],[10.8703,59.9717],[10.8732,59.9721],[10.8742,59.9717],[10.8704,59.9704],[10.8697,59.9695],[10.8672,59.9692],[10.8668,59.9676],[10.8632,59.9675],[10.8616,59.9668],[10.8597,59.9668],[10.8599,59.966],[10.8612,59.9656],[10.8606,59.9644],[10.8614,59.964],[10.863,59.9638],[10.8634,59.9629],[10.862,59.9624],[10.8622,59.9612],[10.8635,59.9606],[10.8637,59.9592],[10.8624,59.9582],[10.86,59.958],[10.8594,59.9573],[10.8568,59.9576],[10.8576,59.9559],[10.8562,59.9557],[10.8551,59.9559],[10.8513,59.9559],[10.8488,59.9567],[10.8467,59.9564],[10.8463,59.9554],[10.8474,59.9552],[10.8478,59.9545],[10.8479,59.9532],[10.8476,59.9528],[10.8474,59.9509],[10.8479,59.951],[10.8525,59.9505],[10.8536,59.9506],[10.8548,59.949],[10.8559,59.9499],[10.8585,59.9507],[10.8607,59.951],[10.8622,59.9497],[10.862,59.9472],[10.8632,59.9465],[10.8629,59.9456],[10.8618,59.9443],[10.8599,59.9434],[10.8587,59.9424],[10.8581,59.9401],[10.8602,59.9406],[10.8715,59.9439],[10.8798,59.9469],[10.8839,59.9479],[10.8869,59.9492],[10.8891,59.9513],[10.8911,59.9526],[10.8931,59.9533],[10.8951,59.9537],[10.8963,59.9546],[10.8932,59.9545],[10.8939,59.9564],[10.8934,59.9573],[10.8947,59.9576],[10.8961,59.9586],[10.896,59.9595],[10.8982,59.9607],[10.8971,59.9612],[10.8993,59.9624],[10.9028,59.9647],[10.9067,59.9659],[10.9094,59.9675],[10.9124,59.9696],[10.9138,59.9704],[10.9157,59.9712],[10.9182,59.973],[10.9199,59.9739],[10.9231,59.975],[10.9277,59.976],[10.9291,59.9772],[10.9283,59.9787],[10.9282,59.9797]]]},"properties":{"bydel":"Grorud","kommune":"Oslo","osm_id":1279932}},
{"type":"Feature","geometry":{"type":"Polygon","coordinates":[[[10.7354,59.9201],[10.7328,59.921],[10.7321,59.922],[10.7319,59.923],[10.7309,59.925],[10.7308,59.9255],[10.7296,59.9263],[10.7282,59.9279],[10.7269,59.9287],[10.7222,59.9322],[10.7155,59.935],[10.7142,59.9354],[10.7093,59.9323],[10.7087,59.9315],[10.7086,59.9305],[10.7073,59.9301],[10.7069,59.929],[10.7048,59.9268],[10.7027,59.9255],[10.6996,59.9245],[10.6984,59.9237],[10.6952,59.9225],[10.6944,59.9216],[10.692,59.9215],[10.6897,59.9206],[10.6884,59.9196],[10.687,59.9191],[10.6873,59.918],[10.6847,59.9181],[10.6834,59.9185],[10.6811,59.9198],[10.6786,59.9203],[10.6776,59.9194],[10.6757,59.9192],[10.6752,59.9182],[10.6561,59.9129],[10.6509,59.9111],[10.6462,59.9098],[10.6478,59.9094],[10.6581,59.8844],[10.661,59.8836],[10.6852,59.8912],[10.6989,59.8958],[10.7067,59.8982],[10.7077,59.8995],[10.7078,59.9005],[10.7128,59.901],[10.7166,59.9015],[10.7252,59.9024],[10.7273,59.9023],[10.7289,59.9092],[10.7319,59.9119],[10.7283,59.9128],[10.7265,59.9119],[10.7251,59.9125],[10.7272,59.9131],[10.7255,59.9138],[10.7277,59.9153],[10.7226,59.9153],[10.7231,59.9171],[10.7279,59.9203],[10.7316,59.9187],[10.7322,59.9173],[10.7354,59.9201]]]},"properties":{"bydel":"Frogner","kommune":"Oslo","osm_id":1279933}},
{"type":"Feature","geometry":{"type":"Polygon","coordinates":[[[10.8042,59.9478],[10.803,59.9477],[10.8034,59.9445],[10.7998,59.9412],[10.7918,59.9397],[10.7885,59.939],[10.7848,59.9376],[10.7925,59.9345],[10.8,59.9321],[10.8041,59.93],[10.8046,59.9293],[10.8029,59.9293],[10.8019,59.929],[10.8023,59.927],[10.8034,59.9262],[10.8061,59.9247],[10.8074,59.9234],[10.8077,59.9226],[10.8119,59.9232],[10.8148,59.9233],[10.8186,59.9233],[10.8251,59.9229],[10.8269,59.923],[10.8309,59.9237],[10.8337,59.9237],[10.8343,59.9251],[10.8343,59.9261],[10.8337,59.929],[10.8339,59.9303],[10.8349,59.932],[10.8366,59.9343],[10.8378,59.9353],[10.8397,59.9366],[10.8414,59.9373],[10.8454,59.9384],[10.8492,59.9391],[10.8581,59.9401],[10.8587,59.9424],[10.8599,59.9434],[10.8618,59.9443],[10.8629,59.9456],[10.8632,59.9465],[10.862,59.9472],[10.8622,59.9497],[10.8607,59.951],[10.8585,59.9507],[10.8559,59.9499],[10.8548,59.949],[10.8536,59.9506],[10.8525,59.9505],[10.8479,59.951],[10.8474,59.9509],[10.8468,59.9506],[10.8419,59.9494],[10.8416,59.9488],[10.8398,59.9476],[10.8412,59.9472],[10.841,59.9466],[10.8385,59.9462],[10.834,59.9452],[10.8315,59.9453],[10.8306,59.9455],[10.8298,59.9471],[10.8298,59.948],[10.8304,59.9485],[10.831,59.95],[10.8303,59.9512],[10.8266,59.9512],[10.8262,59.9519],[10.8243,59.952],[10.823,59.9524],[10.8238,59.9529],[10.8235,59.954],[10.8229,59.9544],[10.819,59.9551],[10.817,59.9579],[10.8164,59.9599],[10.8153,59.96],[10.8149,59.9581],[10.8145,59.9578],[10.8144,59.9551],[10.8142,59.9538],[10.8152,59.9516],[10.8151,59.9508],[10.814,59.9508],[10.8134,59.9498],[10.8124,59.949],[10.809,59.9488],[10.8062,59.948],[10.8042,59.9478]]]},"properties":{"bydel":"Bjerke","kommune":"Oslo","osm_id":1279934}},
{"type":"Feature","geometry":{"type":"Polygon","coordinates":[[[10.7155,59.935],[10.7167,59.9355],[10.7189,59.9368],[10.7193,59.9366],[10.7227,59.9371],[10.7246,59.9363],[10.7301,59.9382],[10.7313,59.938],[10.7318,59.9388],[10.7367,59.9412],[10.7407,59.943],[10.7423,59.9421],[10.744,59.9418],[10.7434,59.9412],[10.7466,59.9403],[10.7469,59.9412],[10.7501,59.9408],[10.7485,59.9432],[10.7482,59.9439],[10.7493,59.944],[10.7554,59.9454],[10.7578,59.9464],[10.7602,59.9459],[10.7627,59.9459],[10.765,59.9456],[10.765,59.9463],[10.7656,59.9471],[10.7713,59.9481],[10.7736,59.9481],[10.7775,59.9469],[10.7785,59.9453],[10.7808,59.9406],[10.7813,59.939],[10.7825,59.9366],[10.7848,59.9376],[10.7885,59.939],[10.7918,59.9397],[10.7998,59.9412],[10.8034,59.9445],[10.803,59.9477],[10.8042,59.9478],[10.8043,59.9491],[10.8037,59.9496],[10.8017,59.9491],[10.8004,59.9509],[10.7986,59.9523],[10.7972,59.9527],[10.7978,59.9539],[10.7991,59.9537],[10.7993,59.9545],[10.7984,59.9549],[10.7982,59.9574],[10.7982,59.9604],[10.7991,59.9616],[10.7993,59.9626],[10.7976,59.9631],[10.7977,59.9662],[10.7988,59.9672],[10.799,59.9679],[10.7978,59.9685],[10.7989,59.9691],[10.7965,59.9703],[10.7938,59.9713],[10.7933,59.9707],[10.7933,59.9693],[10.7924,59.9691],[10.7904,59.9696],[10.7905,59.9705],[10.7877,59.9705],[10.7879,59.9695],[10.7867,59.9693],[10.7844,59.9697],[10.7826,59.9703],[10.7807,59.9704],[10.7793,59.9701],[10.7773,59.9701],[10.7761,59.9704],[10.7706,59.9696],[10.7663,59.9683],[10.7665,59.9669],[10.7653,59.9669],[10.7643,59.9655],[10.763,59.9654],[10.7611,59.966],[10.756,59.9658],[10.7533,59.965],[10.7512,59.9665],[10.7506,59.966],[10.7484,59.9663],[10.748,59.9682],[10.7457,59.9684],[10.7446,59.967],[10.7448,59.9663],[10.7436,59.9652],[10.7411,59.9652],[10.7396,59.9655],[10.7396,59.9663],[10.7374,59.9663],[10.7359,59.9673],[10.7342,59.9671],[10.733,59.9709],[10.7321,59.972],[10.7312,59.9709],[10.7293,59.9706],[10.7285,59.9696],[10.7255,59.9695],[10.7255,59.969],[10.7244,59.9686],[10.7229,59.9685],[10.7219,59.9679],[10.7217,59.9661],[10.7219,59.9625],[10.7203,59.9607],[10.7177,59.9587],[10.7155,59.9576],[10.7158,59.9572],[10.7146,59.9558],[10.7142,59.9544],[10.7153,59.9542],[10.715,59.9529],[10.7139,59.9522],[10.7122,59.9499],[10.7123,59.9485],[10.7129,59.9477],[10.7115,59.9463],[10.7143,59.9458],[10.7175,59.9458],[10.7156,59.9422],[10.7145,59.9407],[10.7173,59.94],[10.7163,59.9388],[10.7166,59.9385],[10.7142,59.9354],[10.7155,59.935]]]},"properties":{"bydel":"Nordre Aker","kommune":"Oslo","osm_id":1279935}},
{"type":"Feature","geometry":{"type":"Polygon","coordinates":[[[10.6192,59.9687],[10.6205,59.9663],[10.622,59.9656],[10.6244,59.9648],[10.6244,59.9643],[10.6233,59.9629],[10.626,59.9621],[10.6279,59.9614],[10.6281,59.9603],[10.6294,59.9598],[10.63,59.9586],[10.6318,59.9572],[10.6308,59.9563],[10.6313,59.9547],[10.6321,59.9537],[10.6339,59.9534],[10.634,59.9526],[10.6331,59.9521],[10.6341,59.9517],[10.6345,59.9501],[10.6349,59.9497],[10.6356,59.9478],[10.6358,59.9454],[10.6347,59.944],[10.6329,59.9428],[10.6329,59.942],[10.6323,59.9401],[10.6318,59.9396],[10.6343,59.9394],[10.6369,59.9397],[10.6389,59.9396],[10.6409,59.9391],[10.6404,59.9371],[10.6426,59.9378],[10.6445,59.9374],[10.6466,59.9382],[10.6478,59.9381],[10.6495,59.9365],[10.6523,59.9372],[10.6539,59.9366],[10.6561,59.9364],[10.6553,59.9373],[10.6642,59.9389],[10.6646,59.9398],[10.6659,59.9397],[10.6687,59.9397],[10.6704,59.9402],[10.6712,59.9419],[10.6739,59.9417],[10.6745,59.9406],[10.6753,59.94],[10.6766,59.9397],[10.6795,59.9393],[10.6817,59.9381],[10.6845,59.9373],[10.6934,59.9351],[10.6974,59.9346],[10.7023,59.9336],[10.7057,59.9321],[10.7087,59.9315],[10.7093,59.9323],[10.7142,59.9354],[10.7166,59.9385],[10.7163,59.9388],[10.7173,59.94],[10.7145,59.9407],[10.7156,59.9422],[10.7175,59.9458],[10.7143,59.9458],[10.7115,59.9463],[10.7129,59.9477],[10.7123,59.9485],[10.7122,59.9499],[10.7139,59.9522],[10.715,59.9529],[10.7153,59.9542],[10.7142,59.9544],[10.7146,59.9558],[10.7158,59.9572],[10.7155,59.9576],[10.7145,59.9579],[10.7117,59.9567],[10.7107,59.9575],[10.7102,59.9589],[10.7112,59.9596],[10.7113,59.9602],[10.71,59.962],[10.711,59.9635],[10.7096,59.9637],[10.7061,59.963],[10.7051,59.9626],[10.7025,59.9609],[10.7016,59.9606],[10.6989,59.9612],[10.6992,59.9624],[10.6972,59.9621],[10.6956,59.9641],[10.694,59.9657],[10.692,59.966],[10.6913,59.9648],[10.6919,59.9647],[10.6899,59.9632],[10.6882,59.9632],[10.6887,59.9624],[10.6865,59.9612],[10.6854,59.9611],[10.6826,59.9614],[10.6819,59.9618],[10.6801,59.9613],[10.6785,59.9621],[10.6701,59.9625],[10.669,59.9615],[10.6673,59.9613],[10.6668,59.9624],[10.6649,59.9624],[10.6658,59.9638],[10.6638,59.9632],[10.6618,59.9638],[10.6627,59.9662],[10.6634,59.9662],[10.6635,59.9679],[10.6628,59.9683],[10.6636,59.9691],[10.67,59.9677],[10.671,59.9701],[10.6721,59.9701],[10.6736,59.9712],[10.6739,59.972],[10.673,59.9726],[10.6718,59.9743],[10.6682,59.977],[10.6667,59.9773],[10.6662,59.9788],[10.664,59.9803],[10.6623,59.9807],[10.6592,59.982],[10.6578,59.9821],[10.6561,59.9817],[10.6544,59.9819],[10.6548,59.9836],[10.6548,59.9845],[10.6518,59.9851],[10.6508,59.9842],[10.6496,59.9824],[10.6486,59.9813],[10.6476,59.981],[10.6465,59.9782],[10.645,59.9778],[10.6443,59.9765],[10.6441,59.9744],[10.6443,59.9731],[10.6441,59.9713],[10.6417,59.9706],[10.6409,59.9698],[10.6396,59.9709],[10.6384,59.9695],[10.636,59.9697],[10.6344,59.9691],[10.6322,59.9686],[10.6294,59.9684],[10.6256,59.9686],[10.6192,59.9687]]]},"properties":{"bydel":"Vestre Aker","kommune":"Oslo","osm_id":1279936}},
{"type":"Feature","geometry":{"type":"Polygon","coordinates":[[[10.7581,59.9135],[10.7589,59.9134],[10.7579,59.9123],[10.7574,59.9107],[10.7555,59.9081],[10.7543,59.9055],[10.7535,59.9044],[10.7464,59.8997],[10.7365,59.9009],[10.7273,59.9023],[10.7252,59.9024],[10.7166,59.9015],[10.7128,59.901],[10.7078,59.9005],[10.7077,59.8995],[10.7067,59.8982],[10.6989,59.8958],[10.6852,59.8912],[10.661,59.8836],[10.689,59.8759],[10.7263,59.877],[10.7309,59.8801],[10.7371,59.884],[10.7424,59.8873],[10.7517,59.8909],[10.7493,59.8949],[10.7526,59.8956],[10.7561,59.896],[10.7588,59.8932],[10.7601,59.8935],[10.7594,59.895],[10.7609,59.8985],[10.7621,59.8996],[10.7636,59.9003],[10.766,59.9008],[10.7702,59.9009],[10.7789,59.9004],[10.7802,59.8999],[10.7838,59.8999],[10.7892,59.9005],[10.7891,59.901],[10.7921,59.9012],[10.796,59.9019],[10.798,59.9024],[10.7997,59.9034],[10.7988,59.9041],[10.8,59.9043],[10.8022,59.905],[10.803,59.906],[10.8061,59.9063],[10.8168,59.9079],[10.8143,59.9093],[10.8127,59.9107],[10.8139,59.9135],[10.8089,59.9165],[10.8111,59.9174],[10.8098,59.918],[10.8084,59.9194],[10.8077,59.9226],[10.8069,59.9224],[10.801,59.9218],[10.7849,59.9183],[10.7819,59.9174],[10.7823,59.9165],[10.7803,59.9164],[10.779,59.9157],[10.7768,59.9154],[10.7753,59.9181],[10.7741,59.9179],[10.773,59.9165],[10.7698,59.9151],[10.7665,59.9172],[10.7648,59.9187],[10.7627,59.9176],[10.7616,59.9185],[10.7592,59.9178],[10.7606,59.9176],[10.7618,59.917],[10.7607,59.9161],[10.7581,59.9135]]]},"properties":{"bydel":"Gamle Oslo","kommune":"Oslo","osm_id":1279937}},
{"type":"Feature","geometry":{"type":"Polygon","coordinates":[[[10.8581,59.9401],[10.8492,59.9391],[10.8454,59.9384],[10.8414,59.9373],[10.8397,59.9366],[10.8378,59.9353],[10.8366,59.9343],[10.8349,59.932],[10.8339,59.9303],[10.8337,59.929],[10.8343,59.9261],[10.8343,59.9251],[10.8337,59.9237],[10.8309,59.9237],[10.8269,59.923],[10.8251,59.9229],[10.8186,59.9233],[10.8148,59.9233],[10.8119,59.9232],[10.8077,59.9226],[10.8084,59.9194],[10.8098,59.918],[10.8111,59.9174],[10.8089,59.9165],[10.8139,59.9135],[10.8127,59.9107],[10.8143,59.9093],[10.8168,59.9079],[10.8209,59.9088],[10.8231,59.9097],[10.8246,59.9106],[10.8266,59.9123],[10.8293,59.911],[10.8308,59.9106],[10.8338,59.9106],[10.836,59.9109],[10.8376,59.9115],[10.839,59.9126],[10.8408,59.9131],[10.8436,59.9136],[10.847,59.911],[10.8482,59.9116],[10.8515,59.9119],[10.8519,59.9105],[10.8551,59.9093],[10.8566,59.9085],[10.8625,59.9098],[10.8648,59.9091],[10.8656,59.9091],[10.8642,59.9108],[10.8613,59.9136],[10.8611,59.9144],[10.8623,59.9152],[10.8626,59.9163],[10.8622,59.9167],[10.8624,59.9176],[10.8648,59.9184],[10.8661,59.9199],[10.8701,59.9204],[10.8699,59.9212],[10.8705,59.9217],[10.8746,59.922],[10.8757,59.9209],[10.8772,59.921],[10.8778,59.9204],[10.8789,59.9203],[10.8805,59.9207],[10.881,59.9214],[10.8809,59.9227],[10.8828,59.9226],[10.8833,59.9256],[10.8829,59.9266],[10.8832,59.928],[10.8872,59.9281],[10.8873,59.9299],[10.8902,59.931],[10.8912,59.9318],[10.8923,59.9319],[10.9012,59.9356],[10.9023,59.935],[10.906,59.9352],[10.9093,59.9341],[10.9102,59.933],[10.9105,59.9314],[10.9129,59.9297],[10.9148,59.9294],[10.9162,59.9289],[10.917,59.929],[10.9214,59.9292],[10.9237,59.9291],[10.9248,59.9304],[10.9272,59.9322],[10.929,59.9348],[10.9315,59.9363],[10.9261,59.9378],[10.9253,59.9386],[10.9251,59.9396],[10.9193,59.9402],[10.9174,59.9402],[10.9129,59.9396],[10.9104,59.9394],[10.9031,59.9396],[10.9031,59.9404],[10.9043,59.9404],[10.9045,59.9412],[10.9026,59.9419],[10.9005,59.9432],[10.8996,59.9451],[10.902,59.9452],[10.9033,59.9457],[10.9045,59.9458],[10.9047,59.9466],[10.9028,59.9482],[10.9037,59.9485],[10.9064,59.9503],[10.9097,59.9511],[10.9015,59.9533],[10.8984,59.9538],[10.8951,59.9537],[10.8931,59.9533],[10.8911,59.9526],[10.8891,59.9513],[10.8869,59.9492],[10.8839,59.9479],[10.8798,59.9469],[10.8715,59.9439],[10.8602,59.9406],[10.8581,59.9401]]]},"properties":{"bydel":"Alna","kommune":"Oslo","osm_id":1279938}},
{"type":"Feature","geometry":{"type":"Polygon","coordinates":[[[10.7497,59.9282],[10.7591,59.9283],[10.7611,59.9285],[10.761,59.9304],[10.7623,59.9319],[10.7643,59.9314],[10.7686,59.9296],[10.7712,59.9309],[10.7742,59.9312],[10.776,59.9318],[10.7786,59.9332],[10.7801,59.9353],[10.7825,59.9366],[10.7813,59.939],[10.7808,59.9406],[10.7785,59.9453],[10.7775,59.9469],[10.7736,59.9481],[10.7713,59.9481],[10.7656,59.9471],[10.765,59.9463],[10.765,59.9456],[10.7627,59.9459],[10.7602,59.9459],[10.7578,59.9464],[10.7554,59.9454],[10.7493,59.944],[10.7482,59.9439],[10.7485,59.9432],[10.7501,59.9408],[10.7502,59.94],[10.7496,59.9335],[10.7491,59.9322],[10.7489,59.9307],[10.7497,59.9282]]]},"properties":{"bydel":"Sagene","kommune":"Oslo","osm_id":1279939}},
{"type":"Feature","geometry":{"type":"Polygon","coordinates":[[[10.6462,59.9098],[10.6509,59.9111],[10.6561,59.9129],[10.6752,59.9182],[10.6757,59.9192],[10.6776,59.9194],[10.6786,59.9203],[10.6811,59.9198],[10.6834,59.9185],[10.6847,59.9181],[10.6873,59.918],[10.687,59.9191],[10.6884,59.9196],[10.6897,59.9206],[10.692,59.9215],[10.6944,59.9216],[10.6952,59.9225],[10.6984,59.9237],[10.6996,59.9245],[10.7027,59.9255],[10.7048,59.9268],[10.7069,59.929],[10.7073,59.9301],[10.7086,59.9305],[10.7087,59.9315],[10.7057,59.9321],[10.7023,59.9336],[10.6974,59.9346],[10.6934,59.9351],[10.6845,59.9373],[10.6817,59.9381],[10.6795,59.9393],[10.6766,59.9397],[10.6753,59.94],[10.6745,59.9406],[10.6739,59.9417],[10.6712,59.9419],[10.6704,59.9402],[10.6687,59.9397],[10.6659,59.9397],[10.6646,59.9398],[10.6642,59.9389],[10.6553,59.9373],[10.6561,59.9364],[10.6539,59.9366],[10.6523,59.9372],[10.6495,59.9365],[10.6478,59.9381],[10.6466,59.9382],[10.6445,59.9374],[10.6426,59.9378],[10.6404,59.9371],[10.6409,59.9391],[10.6389,59.9396],[10.6369,59.9397],[10.6343,59.9394],[10.6318,59.9396],[10.6316,59.9386],[10.633,59.9379],[10.6347,59.9366],[10.6353,59.9358],[10.634,59.9346],[10.6341,59.9341],[10.633,59.9325],[10.6311,59.9312],[10.6287,59.9303],[10.6267,59.9298],[10.6265,59.9294],[10.6274,59.9285],[10.6271,59.9279],[10.6254,59.9271],[10.6274,59.9255],[10.6274,59.925],[10.626,59.9244],[10.6253,59.9235],[10.6259,59.9225],[10.6285,59.9221],[10.6298,59.9214],[10.6295,59.9198],[10.6304,59.9182],[10.6312,59.9177],[10.6329,59.918],[10.6342,59.9174],[10.6339,59.9166],[10.6331,59.9165],[10.6328,59.9151],[10.6333,59.9144],[10.6347,59.9141],[10.636,59.9148],[10.6404,59.9138],[10.6425,59.9107],[10.6462,59.9098]]]},"properties":{"bydel":"Ullern","kommune":"Oslo","osm_id":1279940}},
{"type":"Feature","geometry":{"type":"Polygon","coordinates":[[[10.7532,59.9145],[10.7581,59.9135],[10.7607,59.9161],[10.7618,59.917],[10.7606,59.9176],[10.7592,59.9178],[10.7616,59.9185],[10.7627,59.9176],[10.7648,59.9187],[10.7665,59.9172],[10.7698,59.9151],[10.773,59.9165],[10.7741,59.9179],[10.7753,59.9181],[10.7768,59.9154],[10.779,59.9157],[10.7803,59.9164],[10.7823,59.9165],[10.7819,59.9174],[10.7849,59.9183],[10.801,59.9218],[10.8069,59.9224],[10.8077,59.9226],[10.8074,59.9234],[10.8061,59.9247],[10.8034,59.9262],[10.8023,59.927],[10.8019,59.929],[10.8029,59.9293],[10.8046,59.9293],[10.8041,59.93],[10.8,59.9321],[10.7925,59.9345],[10.7848,59.9376],[10.7825,59.9366],[10.7801,59.9353],[10.7786,59.9332],[10.776,59.9318],[10.7742,59.9312],[10.7712,59.9309],[10.7686,59.9296],[10.7643,59.9314],[10.7623,59.9319],[10.761,59.9304],[10.7611,59.9285],[10.7591,59.9283],[10.7497,59.9282],[10.7501,59.9254],[10.7509,59.9235],[10.7506,59.9223],[10.7511,59.9212],[10.748,59.9196],[10.7516,59.9192],[10.757,59.9161],[10.7564,59.9157],[10.7532,59.9145]]]},"properties":{"bydel":"Grünerløkka","kommune":"Oslo","osm_id":1279942}},
{"type":"Feature","geometry":{"type":"Polygon","coordinates":[[[10.7424,59.8439],[10.744,59.8393],[10.7616,59.8305],[10.7648,59.8295],[10.7677,59.8273],[10.7694,59.8263],[10.7708,59.8251],[10.7707,59.8246],[10.7716,59.8235],[10.7741,59.8242],[10.7752,59.8252],[10.7768,59.8262],[10.7809,59.8259],[10.7836,59.8246],[10.7868,59.8241],[10.7892,59.8234],[10.7943,59.8233],[10.7987,59.823],[10.8025,59.8244],[10.8053,59.825],[10.8125,59.8254],[10.8151,59.823],[10.8154,59.8207],[10.8173,59.8181],[10.8314,59.8173],[10.8338,59.8169],[10.836,59.817],[10.8377,59.816],[10.8403,59.8161],[10.8459,59.8169],[10.846,59.8153],[10.8479,59.8119],[10.8528,59.8099],[10.8567,59.8094],[10.8574,59.81],[10.8604,59.8113],[10.8619,59.8116],[10.8632,59.8123],[10.8648,59.8127],[10.8672,59.8127],[10.8703,59.8133],[10.8744,59.8128],[10.8755,59.8128],[10.8775,59.8121],[10.8789,59.8121],[10.8803,59.8114],[10.882,59.8125],[10.8824,59.814],[10.8833,59.8147],[10.8848,59.8149],[10.8884,59.816],[10.8904,59.8177],[10.8865,59.8189],[10.8828,59.8181],[10.8818,59.8181],[10.8795,59.8191],[10.8754,59.8203],[10.8747,59.8215],[10.8747,59.823],[10.8743,59.8233],[10.8715,59.8241],[10.8712,59.8269],[10.8747,59.8276],[10.8737,59.829],[10.871,59.8291],[10.8708,59.8316],[10.8692,59.8341],[10.8665,59.8337],[10.8647,59.8343],[10.8628,59.8338],[10.8608,59.8338],[10.8598,59.8334],[10.8584,59.8338],[10.8566,59.8338],[10.8545,59.8329],[10.8532,59.8331],[10.8534,59.8338],[10.8548,59.8351],[10.8502,59.8345],[10.8481,59.8337],[10.8471,59.8342],[10.846,59.8356],[10.8471,59.8369],[10.8479,59.8382],[10.848,59.8402],[10.8475,59.8426],[10.8481,59.8432],[10.8484,59.8464],[10.8469,59.8466],[10.847,59.8473],[10.8463,59.8496],[10.8463,59.8508],[10.8456,59.8513],[10.8465,59.8548],[10.8459,59.8579],[10.8461,59.8602],[10.8467,59.8618],[10.8481,59.8632],[10.8446,59.8627],[10.8435,59.8619],[10.8402,59.8618],[10.8352,59.8619],[10.8338,59.8614],[10.8324,59.8619],[10.8307,59.8619],[10.8309,59.86],[10.8295,59.8593],[10.8274,59.859],[10.8256,59.8592],[10.8243,59.8596],[10.8219,59.8595],[10.8208,59.8586],[10.8222,59.8567],[10.8216,59.8562],[10.8204,59.8574],[10.8184,59.857],[10.8176,59.8547],[10.8184,59.8542],[10.8199,59.8518],[10.8169,59.8512],[10.8162,59.8503],[10.8141,59.8499],[10.8113,59.8504],[10.8101,59.8503],[10.8076,59.8492],[10.8049,59.8492],[10.8019,59.8486],[10.8029,59.8476],[10.8028,59.8458],[10.8018,59.8441],[10.7994,59.8427],[10.796,59.8424],[10.7967,59.843],[10.7963,59.8453],[10.7951,59.8466],[10.7964,59.8472],[10.796,59.8481],[10.7976,59.8485],[10.7974,59.8493],[10.7941,59.8489],[10.7938,59.8483],[10.7923,59.848],[10.7922,59.8472],[10.7905,59.8458],[10.787,59.8446],[10.7862,59.8436],[10.7842,59.8432],[10.7837,59.8425],[10.7847,59.8417],[10.7838,59.8414],[10.7834,59.8403],[10.7816,59.8391],[10.7794,59.8383],[10.7795,59.8395],[10.7785,59.8408],[10.7776,59.8408],[10.7737,59.8427],[10.7694,59.8427],[10.7424,59.8439]]]},"properties":{"bydel":"Søndre Nordstrand","kommune":"Oslo","osm_id":1279944}},
{"type":"Feature","geometry":{"type":"Polygon","coordinates":[[[10.7997,59.9034],[10.798,59.9024],[10.796,59.9019],[10.7921,59.9012],[10.7891,59.901],[10.7892,59.9005],[10.7838,59.8999],[10.7802,59.8999],[10.7789,59.9004],[10.7702,59.9009],[10.766,59.9008],[10.7636,59.9003],[10.7621,59.8996],[10.7609,59.8985],[10.7594,59.895],[10.7601,59.8935],[10.7588,59.8932],[10.7561,59.896],[10.7526,59.8956],[10.7493,59.8949],[10.7517,59.8909],[10.7424,59.8873],[10.7371,59.884],[10.7309,59.8801],[10.7263,59.877],[10.731,59.8772],[10.7424,59.8439],[10.7694,59.8427],[10.7737,59.8427],[10.7776,59.8408],[10.7785,59.8408],[10.7795,59.8395],[10.7794,59.8383],[10.7816,59.8391],[10.7834,59.8403],[10.7838,59.8414],[10.7847,59.8417],[10.7837,59.8425],[10.7842,59.8432],[10.7862,59.8436],[10.787,59.8446],[10.7905,59.8458],[10.7922,59.8472],[10.7923,59.848],[10.7938,59.8483],[10.7941,59.8489],[10.7974,59.8493],[10.7976,59.8485],[10.796,59.8481],[10.7964,59.8472],[10.7951,59.8466],[10.7963,59.8453],[10.7967,59.843],[10.796,59.8424],[10.7994,59.8427],[10.8018,59.8441],[10.8028,59.8458],[10.8029,59.8476],[10.8019,59.8486],[10.8049,59.8492],[10.8076,59.8492],[10.8101,59.8503],[10.8113,59.8504],[10.8141,59.8499],[10.8162,59.8503],[10.8169,59.8512],[10.8199,59.8518],[10.8184,59.8542],[10.8176,59.8547],[10.8184,59.857],[10.8204,59.8574],[10.8216,59.8562],[10.8222,59.8567],[10.8208,59.8586],[10.8219,59.8595],[10.8243,59.8596],[10.8256,59.8592],[10.8274,59.859],[10.8295,59.8593],[10.8309,59.86],[10.8307,59.8619],[10.8307,59.8639],[10.83,59.8671],[10.8293,59.869],[10.8282,59.8703],[10.8266,59.8716],[10.825,59.8733],[10.8238,59.8749],[10.8225,59.8762],[10.8192,59.8785],[10.8169,59.8807],[10.8152,59.8829],[10.8131,59.8846],[10.8087,59.887],[10.8064,59.8887],[10.8052,59.89],[10.8044,59.8914],[10.804,59.8932],[10.8045,59.8944],[10.8047,59.8969],[10.8041,59.8986],[10.8032,59.9],[10.8031,59.9008],[10.7997,59.9034]]]},"properties":{"bydel":"Nordstrand","kommune":"Oslo","osm_id":1279946}},
{"type":"Feature","geometry":{"type":"Polygon","coordinates":[[[10.7354,59.9201],[10.7322,59.9173],[10.7316,59.9187],[10.7279,59.9203],[10.7231,59.9171],[10.7226,59.9153],[10.7277,59.9153],[10.7255,59.9138],[10.7272,59.9131],[10.7251,59.9125],[10.7265,59.9119],[10.7283,59.9128],[10.7319,59.9119],[10.7289,59.9092],[10.7273,59.9023],[10.7365,59.9009],[10.7464,59.8997],[10.7535,59.9044],[10.7543,59.9055],[10.7555,59.9081],[10.7574,59.9107],[10.7579,59.9123],[10.7589,59.9134],[10.7581,59.9135],[10.7532,59.9145],[10.7478,59.9129],[10.7459,59.9128],[10.7415,59.9145],[10.7406,59.9165],[10.7369,59.9187],[10.7354,59.9201]]]},"properties":{"bydel":"Sentrum","kommune":"Oslo","osm_id":1279948}},
{"type":"Feature","geometry":{"type":"MultiPolygon","coordinates":[[[[10.8042,59.9478],[10.8062,59.948],[10.809,59.9488],[10.8124,59.949],[10.8134,59.9498],[10.814,59.9508],[10.8151,59.9508],[10.8152,59.9516],[10.8142,59.9538],[10.8144,59.9551],[10.8145,59.9578],[10.8149,59.9581],[10.8153,59.96],[10.8164,59.9599],[10.817,59.9579],[10.819,59.9551],[10.8229,59.9544],[10.8235,59.954],[10.8238,59.9529],[10.823,59.9524],[10.8243,59.952],[10.8262,59.9519],[10.8266,59.9512],[10.8303,59.9512],[10.831,59.95],[10.8304,59.9485],[10.8298,59.948],[10.8298,59.9471],[10.8306,59.9455],[10.8315,59.9453],[10.834,59.9452],[10.8385,59.9462],[10.841,59.9466],[10.8412,59.9472],[10.8398,59.9476],[10.8416,59.9488],[10.8419,59.9494],[10.8468,59.9506],[10.8474,59.9509],[10.8476,59.9528],[10.8479,59.9532],[10.8478,59.9545],[10.8474,59.9552],[10.8463,59.9554],[10.8467,59.9564],[10.8488,59.9567],[10.8513,59.9559],[10.8551,59.9559],[10.8562,59.9557],[10.8576,59.9559],[10.8568,59.9576],[10.8594,59.9573],[10.86,59.958],[10.8624,59.9582],[10.8637,59.9592],[10.8635,59.9606],[10.8622,59.9612],[10.862,59.9624],[10.8634,59.9629],[10.863,59.9638],[10.8614,59.964],[10.8606,59.9644],[10.8612,59.9656],[10.8599,59.966],[10.8597,59.9668],[10.8616,59.9668],[10.8632,59.9675],[10.8668,59.9676],[10.8672,59.9692],[10.8697,59.9695],[10.8704,59.9704],[10.8742,59.9717],[10.8732,59.9721],[10.8703,59.9717],[10.8678,59.9728],[10.8689,59.9745],[10.8696,59.9769],[10.8747,59.977],[10.8754,59.9759],[10.8759,59.9741],[10.8758,59.9731],[10.874,59.9726],[10.8758,59.9717],[10.8765,59.9704],[10.8776,59.9705],[10.8781,59.9717],[10.8773,59.9724],[10.8776,59.973],[10.8793,59.9731],[10.8803,59.9708],[10.881,59.9701],[10.8803,59.9694],[10.883,59.9684],[10.8833,59.9676],[10.8845,59.9667],[10.8843,59.9653],[10.8861,59.9639],[10.8856,59.9632],[10.8863,59.9627],[10.8879,59.9627],[10.889,59.9621],[10.8901,59.9632],[10.8895,59.9647],[10.8895,59.9659],[10.8903,59.9684],[10.8915,59.9695],[10.8938,59.9704],[10.8975,59.971],[10.8994,59.9718],[10.9006,59.972],[10.9025,59.9717],[10.9044,59.9724],[10.9055,59.9731],[10.9065,59.9731],[10.9082,59.975],[10.9089,59.9755],[10.9093,59.9768],[10.9108,59.9779],[10.9117,59.9772],[10.9109,59.9765],[10.9118,59.9752],[10.9133,59.9752],[10.9141,59.9769],[10.9162,59.9771],[10.9168,59.9775],[10.9177,59.9793],[10.916,59.9833],[10.9161,59.9838],[10.9127,59.981],[10.9105,59.9803],[10.9074,59.9802],[10.9059,59.9807],[10.9008,59.9803],[10.8988,59.9803],[10.8932,59.9808],[10.89,59.9819],[10.8854,59.9834],[10.8827,59.9846],[10.8803,59.9849],[10.8784,59.9855],[10.8761,59.9855],[10.8749,59.9864],[10.8749,59.9877],[10.8716,59.9898],[10.8679,59.9912],[10.8671,59.993],[10.8663,59.9938],[10.866,59.995],[10.8642,59.9957],[10.8626,59.9955],[10.8607,59.9959],[10.8578,59.9962],[10.8555,59.9982],[10.8522,59.9998],[10.8493,60.002],[10.8482,60.0014],[10.8427,59.9995],[10.843,59.9992],[10.8425,59.9971],[10.8407,59.9976],[10.84,59.9981],[10.8388,59.9983],[10.8382,59.9991],[10.8385,60.0013],[10.8382,60.0032],[10.8377,60.0041],[10.837,60.007],[10.8357,60.0085],[10.8331,60.0097],[10.8329,60.0103],[10.8335,60.0112],[10.8322,60.0153],[10.832,60.0178],[10.8292,60.0199],[10.8287,60.0217],[10.8269,60.0232],[10.8251,60.0233],[10.8241,60.0227],[10.8224,60.0204],[10.8222,60.0179],[10.8209,60.0174],[10.8204,60.0181],[10.8188,60.0183],[10.8179,60.0192],[10.816,60.0206],[10.813,60.0237],[10.8117,60.0256],[10.8119,60.0274],[10.8135,60.0293],[10.8124,60.0298],[10.8132,60.0303],[10.8126,60.0315],[10.813,60.032],[10.812,60.0335],[10.8121,60.0343],[10.8128,60.0356],[10.8146,60.0369],[10.8164,60.0375],[10.8179,60.0377],[10.818,60.0385],[10.8174,60.039],[10.817,60.0405],[10.818,60.0431],[10.818,60.0445],[10.8174,60.0459],[10.8172,60.0473],[10.8174,60.0489],[10.817,60.0525],[10.8171,60.0533],[10.8164,60.0543],[10.8167,60.0566],[10.8186,60.0606],[10.8198,60.0643],[10.8184,60.0651],[10.8156,60.0652],[10.8131,60.0649],[10.8122,60.0644],[10.8105,60.0647],[10.8079,60.0643],[10.805,60.0651],[10.8007,60.0659],[10.7993,60.0658],[10.7978,60.0662],[10.7963,60.0662],[10.7939,60.0669],[10.788,60.0676],[10.7856,60.0693],[10.7854,60.0701],[10.7842,60.0711],[10.7842,60.0723],[10.7837,60.0733],[10.783,60.0737],[10.7819,60.0752],[10.7804,60.0758],[10.7786,60.0772],[10.779,60.0783],[10.7772,60.0794],[10.7769,60.0808],[10.7748,60.084],[10.7738,60.0852],[10.7723,60.0866],[10.7703,60.0871],[10.7682,60.091],[10.7665,60.0935],[10.7638,60.0966],[10.7627,60.0968],[10.7621,60.0978],[10.7578,60.0987],[10.7573,60.0994],[10.7553,60.0996],[10.7548,60.101],[10.7553,60.1038],[10.7559,60.105],[10.7571,60.1061],[10.7642,60.1103],[10.7668,60.112],[10.7684,60.1122],[10.7677,60.1131],[10.7521,60.1184],[10.7512,60.1208],[10.7491,60.1216],[10.748,60.1217],[10.7476,60.1225],[10.7464,60.1232],[10.7437,60.1233],[10.7427,60.1241],[10.7403,60.1253],[10.7371,60.1257],[10.7344,60.1255],[10.7324,60.125],[10.7316,60.1237],[10.7302,60.1233],[10.7267,60.1221],[10.7236,60.1215],[10.7196,60.1216],[10.7186,60.1214],[10.7168,60.1204],[10.7168,60.1199],[10.7156,60.1196],[10.7139,60.1199],[10.7113,60.1195],[10.7073,60.1194],[10.7048,60.1204],[10.7038,60.1212],[10.7049,60.1229],[10.705,60.1241],[10.7045,60.1252],[10.6993,60.1253],[10.6982,60.1259],[10.6964,60.1259],[10.695,60.1272],[10.6926,60.1281],[10.6803,60.1335],[10.6473,60.1329],[10.6422,60.1334],[10.6361,60.1338],[10.6189,60.1351],[10.6105,60.1346],[10.6039,60.1339],[10.6029,60.1323],[10.6007,60.1316],[10.5886,60.1252],[10.5728,60.1168],[10.5754,60.1141],[10.5828,60.1072],[10.5887,60.1003],[10.5921,60.0939],[10.5918,60.0921],[10.5923,60.0857],[10.5929,60.0825],[10.5973,60.0773],[10.5808,60.0762],[10.5592,60.0624],[10.5262,60.0411],[10.5162,60.0347],[10.4892,60.0173],[10.4902,60.0158],[10.5023,60.0091],[10.5051,60.0077],[10.5101,60.0045],[10.5149,60.0013],[10.5181,59.9993],[10.5242,60.0001],[10.5256,60.0001],[10.5278,59.9997],[10.5287,59.9993],[10.5297,60.0001],[10.5305,60.0001],[10.5338,60.0006],[10.5353,60.0006],[10.5361,60.0001],[10.544,59.998],[10.5454,59.9952],[10.5491,59.9937],[10.5522,59.9946],[10.5559,59.9967],[10.5569,59.9964],[10.5597,59.9939],[10.5657,59.9922],[10.5686,59.9909],[10.5701,59.9897],[10.5768,59.9861],[10.5789,59.9855],[10.5813,59.984],[10.5837,59.9829],[10.585,59.9819],[10.5863,59.9812],[10.5874,59.9799],[10.5891,59.9795],[10.5903,59.9785],[10.5902,59.9776],[10.5918,59.9768],[10.5943,59.9768],[10.5969,59.9778],[10.5974,59.9775],[10.5999,59.9773],[10.6015,59.9769],[10.6037,59.9767],[10.6042,59.977],[10.6105,59.9766],[10.614,59.9743],[10.6182,59.9705],[10.6192,59.9687],[10.6256,59.9686],[10.6294,59.9684],[10.6322,59.9686],[10.6344,59.9691],[10.636,59.9697],[10.6384,59.9695],[10.6396,59.9709],[10.6409,59.9698],[10.6417,59.9706],[10.6441,59.9713],[10.6443,59.9731],[10.6441,59.9744],[10.6443,59.9765],[10.645,59.9778],[10.6465,59.9782],[10.6476,59.981],[10.6486,59.9813],[10.6496,59.9824],[10.6508,59.9842],[10.6518,59.9851],[10.6548,59.9845],[10.6548,59.9836],[10.6544,59.9819],[10.6561,59.9817],[10.6578,59.9821],[10.6592,59.982],[10.6623,59.9807],[10.664,59.9803],[10.6662,59.9788],[10.6667,59.9773],[10.6682,59.977],[10.6718,59.9743],[10.673,59.9726],[10.6739,59.972],[10.6736,59.9712],[10.6721,59.9701],[10.671,59.9701],[10.67,59.9677],[10.6636,59.9691],[10.6628,59.9683],[10.6635,59.9679],[10.6634,59.9662],[10.6627,59.9662],[10.6618,59.9638],[10.6638,59.9632],[10.6658,59.9638],[10.6649,59.9624],[10.6668,59.9624],[10.6673,59.9613],[10.669,59.9615],[10.6701,59.9625],[10.6785,59.9621],[10.6801,59.9613],[10.6819,59.9618],[10.6826,59.9614],[10.6854,59.9611],[10.6865,59.9612],[10.6887,59.9624],[10.6882,59.9632],[10.6899,59.9632],[10.6919,59.9647],[10.6913,59.9648],[10.692,59.966],[10.694,59.9657],[10.6956,59.9641],[10.6972,59.9621],[10.6992,59.9624],[10.6989,59.9612],[10.7016,59.9606],[10.7025,59.9609],[10.7051,59.9626],[10.7061,59.963],[10.7096,59.9637],[10.711,59.9635],[10.71,59.962],[10.7113,59.9602],[10.7112,59.9596],[10.7102,59.9589],[10.7107,59.9575],[10.7117,59.9567],[10.7145,59.9579],[10.7155,59.9576],[10.7177,59.9587],[10.7203,59.9607],[10.7219,59.9625],[10.7217,59.9661],[10.7219,59.9679],[10.7229,59.9685],[10.7244,59.9686],[10.7255,59.969],[10.7255,59.9695],[10.7285,59.9696],[10.7293,59.9706],[10.7312,59.9709],[10.7321,59.972],[10.733,59.9709],[10.7342,59.9671],[10.7359,59.9673],[10.7374,59.9663],[10.7396,59.9663],[10.7396,59.9655],[10.7411,59.9652],[10.7436,59.9652],[10.7448,59.9663],[10.7446,59.967],[10.7457,59.9684],[10.748,59.9682],[10.7484,59.9663],[10.7506,59.966],[10.7512,59.9665],[10.7533,59.965],[10.756,59.9658],[10.7611,59.966],[10.763,59.9654],[10.7643,59.9655],[10.7653,59.9669],[10.7665,59.9669],[10.7663,59.9683],[10.7706,59.9696],[10.7761,59.9704],[10.7773,59.9701],[10.7793,59.9701],[10.7807,59.9704],[10.7826,59.9703],[10.7844,59.9697],[10.7867,59.9693],[10.7879,59.9695],[10.7877,59.9705],[10.7905,59.9705],[10.7904,59.9696],[10.7924,59.9691],[10.7933,59.9693],[10.7933,59.9707],[10.7938,59.9713],[10.7965,59.9703],[10.7989,59.9691],[10.7978,59.9685],[10.799,59.9679],[10.7988,59.9672],[10.7977,59.9662],[10.7976,59.9631],[10.7993,59.9626],[10.7991,59.9616],[10.7982,59.9604],[10.7982,59.9574],[10.7984,59.9549],[10.7993,59.9545],[10.7991,59.9537],[10.7978,59.9539],[10.7972,59.9527],[10.7986,59.9523],[10.8004,59.9509],[10.8017,59.9491],[10.8037,59.9496],[10.8043,59.9491],[10.8042,59.9478]]],[[[10.8904,59.8177],[10.8918,59.8182],[10.8921,59.8195],[10.8918,59.821],[10.8938,59.8216],[10.896,59.8218],[10.8968,59.822],[10.8965,59.8238],[10.9011,59.8255],[10.9066,59.8261],[10.9084,59.8259],[10.9095,59.8262],[10.9106,59.826],[10.9116,59.8268],[10.9134,59.8271],[10.9149,59.8268],[10.917,59.8278],[10.9196,59.8279],[10.9226,59.8276],[10.9251,59.8277],[10.9274,59.8269],[10.929,59.8283],[10.9314,59.8299],[10.933,59.8313],[10.9366,59.8318],[10.9352,59.8349],[10.9341,59.836],[10.9331,59.8366],[10.9312,59.8368],[10.9303,59.8382],[10.9297,59.8385],[10.9291,59.8403],[10.9269,59.8425],[10.9262,59.8442],[10.9265,59.8451],[10.9256,59.8463],[10.9216,59.8521],[10.92,59.8537],[10.9123,59.8601],[10.9093,59.8648],[10.9072,59.8699],[10.9099,59.8753],[10.9076,59.885],[10.909,59.8883],[10.9114,59.8968],[10.9119,59.9004],[10.9133,59.905],[10.9138,59.9058],[10.914,59.9079],[10.9145,59.9096],[10.9151,59.9104],[10.9148,59.9116],[10.9157,59.9123],[10.9157,59.9135],[10.9166,59.9158],[10.9173,59.917],[10.9174,59.918],[10.9185,59.9199],[10.9196,59.9207],[10.9193,59.9216],[10.9201,59.9227],[10.9205,59.9242],[10.9213,59.9253],[10.9214,59.9265],[10.9237,59.9291],[10.9214,59.9292],[10.917,59.929],[10.9162,59.9289],[10.9148,59.9294],[10.9129,59.9297],[10.9105,59.9314],[10.9102,59.933],[10.9093,59.9341],[10.906,59.9352],[10.9023,59.935],[10.9012,59.9356],[10.8923,59.9319],[10.8912,59.9318],[10.8902,59.931],[10.8873,59.9299],[10.8872,59.9281],[10.8832,59.928],[10.8829,59.9266],[10.8833,59.9256],[10.8828,59.9226],[10.8809,59.9227],[10.881,59.9214],[10.8805,59.9207],[10.8789,59.9203],[10.8778,59.9204],[10.8772,59.921],[10.8757,59.9209],[10.8746,59.922],[10.8705,59.9217],[10.8699,59.9212],[10.8701,59.9204],[10.8661,59.9199],[10.8648,59.9184],[10.8624,59.9176],[10.8622,59.9167],[10.8626,59.9163],[10.8623,59.9152],[10.8611,59.9144],[10.8613,59.9136],[10.8642,59.9108],[10.8656,59.9091],[10.8648,59.9091],[10.8625,59.9098],[10.8566,59.9085],[10.8551,59.9093],[10.8562,59.9084],[10.8568,59.9075],[10.8559,59.9069],[10.856,59.9054],[10.8525,59.9055],[10.8528,59.9048],[10.8534,59.9011],[10.8539,59.9007],[10.8543,59.8985],[10.855,59.8975],[10.8562,59.8973],[10.8562,59.8963],[10.857,59.8957],[10.857,59.8937],[10.8576,59.8931],[10.8575,59.8904],[10.8582,59.8891],[10.8573,59.8891],[10.8577,59.8874],[10.8585,59.8874],[10.8582,59.8862],[10.8557,59.8837],[10.8569,59.8826],[10.8569,59.8765],[10.8501,59.8764],[10.8492,59.8758],[10.8484,59.8743],[10.8494,59.8727],[10.8511,59.8727],[10.8504,59.8709],[10.8476,59.869],[10.8463,59.8693],[10.8445,59.8676],[10.8438,59.8665],[10.8439,59.8632],[10.8431,59.8625],[10.8402,59.8618],[10.8435,59.8619],[10.8446,59.8627],[10.8481,59.8632],[10.8467,59.8618],[10.8461,59.8602],[10.8459,59.8579],[10.8465,59.8548],[10.8456,59.8513],[10.8463,59.8508],[10.8463,59.8496],[10.847,59.8473],[10.8469,59.8466],[10.8484,59.8464],[10.8481,59.8432],[10.8475,59.8426],[10.848,59.8402],[10.8479,59.8382],[10.8471,59.8369],[10.846,59.8356],[10.8471,59.8342],[10.8481,59.8337],[10.8502,59.8345],[10.8548,59.8351],[10.8534,59.8338],[10.8532,59.8331],[10.8545,59.8329],[10.8566,59.8338],[10.8584,59.8338],[10.8598,59.8334],[10.8608,59.8338],[10.8628,59.8338],[10.8647,59.8343],[10.8665,59.8337],[10.8692,59.8341],[10.8708,59.8316],[10.871,59.8291],[10.8737,59.829],[10.8747,59.8276],[10.8712,59.8269],[10.8715,59.8241],[10.8743,59.8233],[10.8747,59.823],[10.8747,59.8215],[10.8754,59.8203],[10.8795,59.8191],[10.8818,59.8181],[10.8828,59.8181],[10.8865,59.8189],[10.8904,59.8177]]]]},"properties":{"bydel":"Marka","kommune":"Oslo","osm_id":1279950}},
{"type":"Feature","geometry":{"type":"Polygon","coordinates":[[[10.7354,59.9201],[10.7369,59.9187],[10.7406,59.9165],[10.7415,59.9145],[10.7459,59.9128],[10.7478,59.9129],[10.7532,59.9145],[10.7564,59.9157],[10.757,59.9161],[10.7516,59.9192],[10.748,59.9196],[10.7511,59.9212],[10.7506,59.9223],[10.7509,59.9235],[10.7501,59.9254],[10.7497,59.9282],[10.7489,59.9307],[10.7491,59.9322],[10.7496,59.9335],[10.7502,59.94],[10.7501,59.9408],[10.7469,59.9412],[10.7466,59.9403],[10.7434,59.9412],[10.744,59.9418],[10.7423,59.9421],[10.7407,59.943],[10.7367,59.9412],[10.7318,59.9388],[10.7313,59.938],[10.7301,59.9382],[10.7246,59.9363],[10.7227,59.9371],[10.7193,59.9366],[10.7189,59.9368],[10.7167,59.9355],[10.7155,59.935],[10.7222,59.9322],[10.7269,59.9287],[10.7282,59.9279],[10.7296,59.9263],[10.7308,59.9255],[10.7309,59.925],[10.7319,59.923],[10.7321,59.922],[10.7328,59.921],[10.7354,59.9201]]]},"properties":{"bydel":"St. Hanshaugen","kommune":"Oslo","osm_id":1279951}},
{"type":"Feature","geometry":{"type":"Polygon","coordinates":[[[10.8551,59.9093],[10.8519,59.9105],[10.8515,59.9119],[10.8482,59.9116],[10.847,59.911],[10.8436,59.9136],[10.8408,59.9131],[10.839,59.9126],[10.8376,59.9115],[10.836,59.9109],[10.8338,59.9106],[10.8308,59.9106],[10.8293,59.911],[10.8266,59.9123],[10.8246,59.9106],[10.8231,59.9097],[10.8209,59.9088],[10.8168,59.9079],[10.8061,59.9063],[10.803,59.906],[10.8022,59.905],[10.8,59.9043],[10.7988,59.9041],[10.7997,59.9034],[10.8031,59.9008],[10.8032,59.9],[10.8041,59.8986],[10.8047,59.8969],[10.8045,59.8944],[10.804,59.8932],[10.8044,59.8914],[10.8052,59.89],[10.8064,59.8887],[10.8087,59.887],[10.8131,59.8846],[10.8152,59.8829],[10.8169,59.8807],[10.8192,59.8785],[10.8225,59.8762],[10.8238,59.8749],[10.825,59.8733],[10.8266,59.8716],[10.8282,59.8703],[10.8293,59.869],[10.83,59.8671],[10.8307,59.8639],[10.8307,59.8619],[10.8324,59.8619],[10.8338,59.8614],[10.8352,59.8619],[10.8402,59.8618],[10.8431,59.8625],[10.8439,59.8632],[10.8438,59.8665],[10.8445,59.8676],[10.8463,59.8693],[10.8476,59.869],[10.8504,59.8709],[10.8511,59.8727],[10.8494,59.8727],[10.8484,59.8743],[10.8492,59.8758],[10.8501,59.8764],[10.8569,59.8765],[10.8569,59.8826],[10.8557,59.8837],[10.8582,59.8862],[10.8585,59.8874],[10.8577,59.8874],[10.8573,59.8891],[10.8582,59.8891],[10.8575,59.8904],[10.8576,59.8931],[10.857,59.8937],[10.857,59.8957],[10.8562,59.8963],[10.8562,59.8973],[10.855,59.8975],[10.8543,59.8985],[10.8539,59.9007],[10.8534,59.9011],[10.8528,59.9048],[10.8525,59.9055],[10.856,59.9054],[10.8559,59.9069],[10.8568,59.9075],[10.8562,59.9084],[10.8551,59.9093]]]},"properties":{"bydel":"Østensjø","kommune":"Oslo","osm_id":1279952}},
{"type":"Feature","geometry":{"type":"Polygon","coordinates":[[[10.9315,59.9363],[10.9348,59.9383],[10.9374,59.9395],[10.9408,59.9405],[10.9443,59.9422],[10.9442,59.9428],[10.946,59.9432],[10.945,59.944],[10.9433,59.9447],[10.9423,59.9455],[10.943,59.9461],[10.9424,59.9469],[10.943,59.9473],[10.945,59.9478],[10.9454,59.9471],[10.9471,59.9471],[10.9476,59.948],[10.9486,59.9482],[10.9514,59.9492],[10.9459,59.9526],[10.9443,59.9532],[10.9427,59.9528],[10.9423,59.9538],[10.9415,59.9543],[10.9415,59.9552],[10.9405,59.9564],[10.9402,59.9579],[10.9375,59.9609],[10.9378,59.9613],[10.9375,59.9626],[10.9369,59.963],[10.9381,59.9655],[10.9379,59.9683],[10.9373,59.97],[10.9349,59.973],[10.9338,59.9739],[10.9329,59.9754],[10.9313,59.9764],[10.9287,59.979],[10.9282,59.9797],[10.9283,59.9787],[10.9291,59.9772],[10.9277,59.976],[10.9231,59.975],[10.9199,59.9739],[10.9182,59.973],[10.9157,59.9712],[10.9138,59.9704],[10.9124,59.9696],[10.9094,59.9675],[10.9067,59.9659],[10.9028,59.9647],[10.8993,59.9624],[10.8971,59.9612],[10.8982,59.9607],[10.896,59.9595],[10.8961,59.9586],[10.8947,59.9576],[10.8934,59.9573],[10.8939,59.9564],[10.8932,59.9545],[10.8963,59.9546],[10.8951,59.9537],[10.8984,59.9538],[10.9015,59.9533],[10.9097,59.9511],[10.9064,59.9503],[10.9037,59.9485],[10.9028,59.9482],[10.9047,59.9466],[10.9045,59.9458],[10.9033,59.9457],[10.902,59.9452],[10.8996,59.9451],[10.9005,59.9432],[10.9026,59.9419],[10.9045,59.9412],[10.9043,59.9404],[10.9031,59.9404],[10.9031,59.9396],[10.9104,59.9394],[10.9129,59.9396],[10.9174,59.9402],[10.9193,59.9402],[10.9251,59.9396],[10.9253,59.9386],[10.9261,59.9378],[10.9315,59.9363]]]},"properties":{"bydel":"Stovner","kommune":"Oslo","osm_id":1279953}},
{"type":"Feature","geometry":{"type":"MultiPolygon","coordinates":[[[[5.7498,59.0208],[5.7851,59.0328],[5.791,59.046],[5.784,59.0602],[5.7372,59.0599],[5.7156,59.0494],[5.7224,59.0404],[5.725,59.0364],[5.7266,59.0333],[5.7435,59.0324],[5.7498,59.0208]]],[[[5.6673,58.9649],[5.673,58.9734],[5.6768,58.9757],[5.6826,58.9759],[5.6836,58.9761],[5.6849,58.9747],[5.6892,58.9725],[5.6915,58.9723],[5.7007,58.9727],[5.7012,58.9737],[5.704,58.9748],[5.7049,58.9755],[5.7104,58.9783],[5.7096,58.979],[5.7107,58.9794],[5.7102,58.9805],[5.7114,58.9814],[5.7108,58.9822],[5.716,58.9854],[5.708,58.9919],[5.7069,59.0007],[5.7097,59.0034],[5.6832,59.0142],[5.6713,59.0021],[5.6596,58.998],[5.6525,58.9956],[5.6474,58.9903],[5.6495,58.9881],[5.653,58.9867],[5.6589,58.9834],[5.6613,58.9801],[5.6631,58.9779],[5.6621,58.9775],[5.6633,58.9737],[5.6527,58.9738],[5.6534,58.9732],[5.6556,58.9729],[5.6599,58.9693],[5.6673,58.9649]]]]},"properties":{"bydel":"Tasta","kommune":"Stavanger","osm_id":1312722}},
{"type":"Feature","geometry":{"type":"Polygon","coordinates":[[[5.6867,58.9541],[5.6913,58.9485],[5.6924,58.9468],[5.6926,58.9456],[5.6937,58.9446],[5.6933,58.9431],[5.6919,58.9413],[5.691,58.9406],[5.6926,58.9405],[5.6928,58.9398],[5.6921,58.9391],[5.689,58.9376],[5.6922,58.9347],[5.6945,58.9334],[5.703,58.9337],[5.7111,58.9323],[5.7129,58.9334],[5.7184,58.9362],[5.7236,58.936],[5.7345,58.9351],[5.7358,58.9349],[5.7458,58.933],[5.7488,58.9331],[5.7515,58.9338],[5.7525,58.9347],[5.7753,58.9333],[5.7784,58.9419],[5.7652,58.946],[5.7611,58.9469],[5.7561,58.9483],[5.7521,58.9496],[5.7495,58.9507],[5.7482,58.9517],[5.7467,58.954],[5.7455,58.9532],[5.7424,58.9529],[5.7423,58.9519],[5.7401,58.9518],[5.74,58.9524],[5.7376,58.9524],[5.7377,58.9542],[5.7381,58.9545],[5.735,58.9559],[5.7334,58.9563],[5.7305,58.9566],[5.7255,58.956],[5.7205,58.956],[5.7163,58.9557],[5.7098,58.9573],[5.7056,58.9559],[5.7025,58.9567],[5.7007,58.9565],[5.7001,58.9567],[5.696,58.9552],[5.694,58.9546],[5.6906,58.9542],[5.6867,58.9541]]]},"properties":{"bydel":"Hillevåg","kommune":"Stavanger","osm_id":1312723}},
{"type":"Feature","geometry":{"type":"Polygon","coordinates":[[[5.7264,58.9784],[5.7333,58.9761],[5.7481,58.9742],[5.7571,58.9775],[5.7748,58.986],[5.7731,58.9965],[5.7594,59.0035],[5.7498,59.0208],[5.7435,59.0324],[5.7266,59.0333],[5.7314,59.0244],[5.6835,59.0145],[5.6832,59.0142],[5.7097,59.0034],[5.7069,59.0007],[5.708,58.9919],[5.716,58.9854],[5.7211,58.9812],[5.7239,58.9792],[5.7264,58.9784]]]},"properties":{"bydel":"Hundvåg","kommune":"Stavanger","osm_id":1312724}},
{"type":"Feature","geometry":{"type":"Polygon","coordinates":[[[5.6527,58.9738],[5.6496,58.9738],[5.6424,58.9718],[5.6275,58.9758],[5.6231,58.9765],[5.6209,58.9791],[5.6161,58.978],[5.6146,58.9778],[5.614,58.9769],[5.6128,58.9763],[5.6073,58.9762],[5.5913,58.9782],[5.5656,58.9696],[5.5838,58.9661],[5.5947,58.9613],[5.608,58.9603],[5.614,58.9561],[5.6189,58.9461],[5.6303,58.9405],[5.633,58.9332],[5.6463,58.9274],[5.6645,58.9283],[5.6823,58.9332],[5.6827,58.9336],[5.689,58.9376],[5.6921,58.9391],[5.6928,58.9398],[5.6926,58.9405],[5.691,58.9406],[5.6919,58.9413],[5.6933,58.9431],[5.6937,58.9446],[5.6926,58.9456],[5.6924,58.9468],[5.6913,58.9485],[5.6867,58.9541],[5.685,58.954],[5.6841,58.9553],[5.6811,58.9569],[5.678,58.957],[5.6766,58.9573],[5.6779,58.9608],[5.6728,58.9628],[5.6705,58.9639],[5.6673,58.9649],[5.6599,58.9693],[5.6556,58.9729],[5.6534,58.9732],[5.6527,58.9738]]]},"properties":{"bydel":"Madla","kommune":"Stavanger","osm_id":1312725}},
{"type":"Feature","geometry":{"type":"Polygon","coordinates":[[[5.7784,58.9419],[5.7798,58.946],[5.8068,58.9668],[5.8395,58.9687],[5.8634,58.9866],[5.8415,58.9996],[5.7851,59.0328],[5.7498,59.0208],[5.7594,59.0035],[5.7731,58.9965],[5.7748,58.986],[5.7571,58.9775],[5.7481,58.9742],[5.7333,58.9761],[5.7264,58.9784],[5.7264,58.9776],[5.7301,58.971],[5.7316,58.9697],[5.733,58.97],[5.7346,58.9696],[5.7352,58.9683],[5.7344,58.9668],[5.7344,58.9649],[5.7347,58.9644],[5.7374,58.9631],[5.7389,58.9628],[5.74,58.9629],[5.7408,58.9624],[5.744,58.9615],[5.7453,58.9603],[5.744,58.9593],[5.7451,58.9568],[5.7463,58.9555],[5.7467,58.954],[5.7482,58.9517],[5.7495,58.9507],[5.7521,58.9496],[5.7561,58.9483],[5.7611,58.9469],[5.7652,58.946],[5.7784,58.9419]]]},"properties":{"bydel":"Storhaug","kommune":"Stavanger","osm_id":1312726}},
{"type":"Feature","geometry":{"type":"Polygon","coordinates":[[[5.7467,58.954],[5.7463,58.9555],[5.7451,58.9568],[5.744,58.9593],[5.7453,58.9603],[5.744,58.9615],[5.7408,58.9624],[5.74,58.9629],[5.7389,58.9628],[5.7374,58.9631],[5.7347,58.9644],[5.7344,58.9649],[5.7344,58.9668],[5.7352,58.9683],[5.7346,58.9696],[5.733,58.97],[5.7316,58.9697],[5.7301,58.971],[5.7264,58.9776],[5.7264,58.9784],[5.7239,58.9792],[5.7211,58.9812],[5.716,58.9854],[5.7108,58.9822],[5.7114,58.9814],[5.7102,58.9805],[5.7107,58.9794],[5.7096,58.979],[5.7104,58.9783],[5.7049,58.9755],[5.704,58.9748],[5.7012,58.9737],[5.7007,58.9727],[5.6915,58.9723],[5.6892,58.9725],[5.6849,58.9747],[5.6836,58.9761],[5.6826,58.9759],[5.6768,58.9757],[5.673,58.9734],[5.6673,58.9649],[5.6705,58.9639],[5.6728,58.9628],[5.6779,58.9608],[5.6766,58.9573],[5.678,58.957],[5.6811,58.9569],[5.6841,58.9553],[5.685,58.954],[5.6867,58.9541],[5.6906,58.9542],[5.694,58.9546],[5.696,58.9552],[5.7001,58.9567],[5.7007,58.9565],[5.7025,58.9567],[5.7056,58.9559],[5.7098,58.9573],[5.7163,58.9557],[5.7205,58.956],[5.7255,58.956],[5.7305,58.9566],[5.7334,58.9563],[5.735,58.9559],[5.7381,58.9545],[5.7377,58.9542],[5.7376,58.9524],[5.74,58.9524],[5.7401,58.9518],[5.7423,58.9519],[5.7424,58.9529],[5.7455,58.9532],[5.7467,58.954]]]},"properties":{"bydel":"Eiganes og Våland","kommune":"Stavanger","osm_id":1312727}},
{"type":"Feature","geometry":{"type":"Polygon","coordinates":[[[5.7753,58.9333],[5.7525,58.9347],[5.7515,58.9338],[5.7488,58.9331],[5.7458,58.933],[5.7358,58.9349],[5.7345,58.9351],[5.7236,58.936],[5.7184,58.9362],[5.7129,58.9334],[5.7111,58.9323],[5.703,58.9337],[5.7011,58.9319],[5.6893,58.9211],[5.682,58.9145],[5.6823,58.9138],[5.6849,58.9125],[5.693,58.908],[5.6965,58.9053],[5.696,58.8945],[5.721,58.8893],[5.7248,58.8885],[5.7268,58.8894],[5.7333,58.8882],[5.7427,58.8861],[5.7493,58.8847],[5.7581,58.8849],[5.7753,58.9333]]]},"properties":{"bydel":"Hinna","kommune":"Stavanger","osm_id":1312728}},
{"type":"Feature","geometry":{"type":"Polygon","coordinates":[[[5.5792,60.3775],[5.5907,60.3877],[5.607,60.3972],[5.6175,60.3992],[5.6223,60.4001],[5.6426,60.4028],[5.6453,60.4039],[5.6463,60.4046],[5.6467,60.4075],[5.6494,60.4109],[5.6532,60.4144],[5.656,60.4187],[5.6638,60.4203],[5.6649,60.42],[5.6868,60.4259],[5.6864,60.4358],[5.6819,60.4375],[5.6663,60.4425],[5.65,60.4431],[5.6475,60.4427],[5.6431,60.4429],[5.6409,60.4394],[5.6404,60.4372],[5.6393,60.436],[5.6366,60.4349],[5.6357,60.4337],[5.6347,60.4338],[5.6329,60.4351],[5.6305,60.4361],[5.6203,60.438],[5.6131,60.4341],[5.575,60.4342],[5.5584,60.4286],[5.5261,60.4254],[5.5154,60.4307],[5.5136,60.4371],[5.4913,60.4436],[5.4796,60.453],[5.4601,60.4591],[5.4387,60.4735],[5.4271,60.47],[5.4228,60.4696],[5.4217,60.4691],[5.4182,60.4687],[5.4145,60.4679],[5.4138,60.466],[5.415,60.466],[5.4132,60.4643],[5.4124,60.4623],[5.4,60.4578],[5.3949,60.4562],[5.3915,60.4552],[5.3866,60.4537],[5.3813,60.4517],[5.388,60.444],[5.3919,60.4408],[5.3943,60.4385],[5.3972,60.4352],[5.387,60.4277],[5.4067,60.4176],[5.4112,60.415],[5.4129,60.4132],[5.4101,60.4123],[5.4013,60.4105],[5.4067,60.4071],[5.4095,60.4055],[5.4111,60.3984],[5.4082,60.3942],[5.4068,60.3848],[5.4127,60.3815],[5.4111,60.3717],[5.4172,60.37],[5.4248,60.3679],[5.4266,60.3681],[5.4306,60.3678],[5.4394,60.3682],[5.4452,60.3682],[5.4451,60.3675],[5.4456,60.3656],[5.4455,60.3645],[5.4461,60.3636],[5.4482,60.3622],[5.4494,60.3612],[5.4485,60.3607],[5.449,60.3595],[5.4519,60.3582],[5.4516,60.3573],[5.4549,60.3558],[5.4555,60.3531],[5.4554,60.3516],[5.4521,60.347],[5.4514,60.3409],[5.4584,60.3426],[5.4638,60.346],[5.4682,60.3484],[5.4719,60.3487],[5.4791,60.3516],[5.4827,60.3519],[5.4891,60.3528],[5.4934,60.3558],[5.4952,60.3569],[5.5006,60.3587],[5.5053,60.3592],[5.5099,60.3634],[5.5169,60.3653],[5.5213,60.3683],[5.5251,60.3706],[5.5269,60.3718],[5.5326,60.3723],[5.5417,60.3715],[5.5564,60.3738],[5.5633,60.375],[5.5647,60.375],[5.566,60.3759],[5.5683,60.3764],[5.5688,60.3767],[5.5691,60.378],[5.5698,60.3782],[5.5725,60.3782],[5.5758,60.3778],[5.578,60.3779],[5.5792,60.3775]]]},"properties":{"bydel":"Arna","kommune":"Bergen","osm_id":5900510}},
{"type":"Feature","geometry":{"type":"Polygon","coordinates":[[[5.5792,60.3775],[5.578,60.3779],[5.5758,60.3778],[5.5725,60.3782],[5.5698,60.3782],[5.5691,60.378],[5.5688,60.3767],[5.5683,60.3764],[5.566,60.3759],[5.5647,60.375],[5.5633,60.375],[5.5564,60.3738],[5.5417,60.3715],[5.5326,60.3723],[5.5269,60.3718],[5.5251,60.3706],[5.5213,60.3683],[5.5169,60.3653],[5.5099,60.3634],[5.5053,60.3592],[5.5006,60.3587],[5.4952,60.3569],[5.4934,60.3558],[5.4891,60.3528],[5.4827,60.3519],[5.4791,60.3516],[5.4719,60.3487],[5.4682,60.3484],[5.4638,60.346],[5.4584,60.3426],[5.4514,60.3409],[5.4521,60.347],[5.4554,60.3516],[5.4555,60.3531],[5.4549,60.3558],[5.4516,60.3573],[5.4519,60.3582],[5.449,60.3595],[5.4485,60.3607],[5.4494,60.3612],[5.4482,60.3622],[5.4461,60.3636],[5.4455,60.3645],[5.4456,60.3656],[5.4451,60.3675],[5.4452,60.3682],[5.4394,60.3682],[5.4306,60.3678],[5.4266,60.3681],[5.4248,60.3679],[5.4172,60.37],[5.4111,60.3717],[5.4064,60.3658],[5.3932,60.3616],[5.3824,60.3552],[5.3783,60.3515],[5.3783,60.3503],[5.3792,60.35],[5.378,60.3478],[5.3783,60.3471],[5.3773,60.3443],[5.3756,60.3434],[5.3736,60.342],[5.3743,60.3418],[5.3721,60.3403],[5.3717,60.3398],[5.3699,60.339],[5.366,60.3414],[5.3634,60.3406],[5.3638,60.3395],[5.3624,60.3394],[5.3603,60.3397],[5.36,60.3419],[5.3589,60.3413],[5.3567,60.3412],[5.3556,60.3418],[5.3534,60.344],[5.3519,60.345],[5.3515,60.3461],[5.3499,60.3474],[5.3501,60.3496],[5.3488,60.3516],[5.3459,60.3521],[5.3442,60.3521],[5.3436,60.3516],[5.3421,60.3512],[5.3394,60.3519],[5.3378,60.352],[5.3372,60.3494],[5.3358,60.3492],[5.3344,60.3472],[5.3343,60.3463],[5.3336,60.3454],[5.3342,60.3441],[5.3331,60.3315],[5.3178,60.3252],[5.3101,60.3197],[5.319,60.3153],[5.3258,60.3126],[5.3275,60.3091],[5.3287,60.3085],[5.3276,60.3057],[5.3276,60.304],[5.3289,60.3],[5.3259,60.2953],[5.3237,60.2938],[5.3242,60.2935],[5.3254,60.291],[5.3252,60.2864],[5.3254,60.2845],[5.3244,60.2845],[5.3183,60.2837],[5.3181,60.2834],[5.3141,60.2833],[5.3152,60.2819],[5.3146,60.281],[5.3124,60.2813],[5.3104,60.2811],[5.3097,60.2813],[5.3076,60.2808],[5.3059,60.2799],[5.3091,60.2752],[5.3,60.2741],[5.2965,60.2739],[5.295,60.2725],[5.2926,60.2705],[5.2899,60.2677],[5.2913,60.2667],[5.2916,60.265],[5.2925,60.2641],[5.2927,60.2608],[5.2924,60.2597],[5.2923,60.2573],[5.2913,60.2559],[5.279,60.2392],[5.2434,60.2246],[5.2324,60.2245],[5.2094,60.2023],[5.2101,60.1888],[5.2532,60.1761],[5.3208,60.2089],[5.3248,60.2186],[5.3326,60.2225],[5.3367,60.2212],[5.3423,60.2209],[5.3442,60.2244],[5.3493,60.2247],[5.3653,60.2216],[5.3648,60.2249],[5.3689,60.2253],[5.3718,60.2263],[5.3737,60.2274],[5.3749,60.2279],[5.382,60.2321],[5.382,60.2333],[5.3835,60.2341],[5.3847,60.2344],[5.3856,60.2363],[5.3869,60.2381],[5.3877,60.2384],[5.39,60.2402],[5.3912,60.2414],[5.3927,60.2417],[5.3957,60.2432],[5.3966,60.2434],[5.3996,60.2437],[5.4005,60.2441],[5.407,60.2438],[5.411,60.2456],[5.4213,60.2497],[5.4212,60.2467],[5.4231,60.2443],[5.4288,60.2485],[5.4297,60.2495],[5.4333,60.252],[5.4378,60.2549],[5.4391,60.2563],[5.447,60.2563],[5.4528,60.2588],[5.4575,60.2624],[5.4638,60.2642],[5.4662,60.2654],[5.4681,60.2678],[5.4752,60.2728],[5.4782,60.2757],[5.4802,60.2779],[5.4852,60.2832],[5.4888,60.2859],[5.4912,60.2887],[5.4953,60.288],[5.4972,60.2876],[5.5014,60.287],[5.5034,60.2869],[5.5024,60.285],[5.5076,60.2835],[5.5207,60.2797],[5.5269,60.2869],[5.5259,60.2938],[5.5251,60.2969],[5.5298,60.2981],[5.5391,60.3058],[5.5433,60.3097],[5.5441,60.3121],[5.5435,60.3175],[5.5569,60.3259],[5.5653,60.3282],[5.5764,60.3295],[5.5912,60.3416],[5.5913,60.3419],[5.5914,60.3495],[5.5908,60.3529],[5.5895,60.3547],[5.5881,60.3561],[5.5834,60.3584],[5.5876,60.3745],[5.5792,60.3775]]]},"properties":{"bydel":"Fana","kommune":"Bergen","osm_id":5900511}},
{"type":"Feature","geometry":{"type":"Polygon","coordinates":[[[5.3101,60.3197],[5.3178,60.3252],[5.3331,60.3315],[5.3342,60.3441],[5.3336,60.3454],[5.3343,60.3463],[5.3344,60.3472],[5.3358,60.3492],[5.3327,60.3497],[5.3208,60.3503],[5.3123,60.3499],[5.3127,60.3517],[5.3135,60.3542],[5.3138,60.3559],[5.314,60.3586],[5.3193,60.3614],[5.3168,60.369],[5.3058,60.369],[5.3051,60.3703],[5.3036,60.3707],[5.3016,60.3695],[5.2994,60.3693],[5.2983,60.3697],[5.2989,60.3712],[5.2989,60.3729],[5.2997,60.3736],[5.2953,60.3741],[5.276,60.3752],[5.2738,60.3622],[5.2612,60.3562],[5.2535,60.3502],[5.2517,60.348],[5.2489,60.3444],[5.2476,60.3414],[5.248,60.3406],[5.2469,60.3402],[5.2451,60.3401],[5.2433,60.3381],[5.2426,60.3368],[5.2462,60.3289],[5.2476,60.3271],[5.251,60.3229],[5.2567,60.3188],[5.2636,60.321],[5.266,60.3213],[5.2689,60.321],[5.2711,60.3216],[5.2742,60.3227],[5.2792,60.323],[5.2847,60.3194],[5.3101,60.3197]]]},"properties":{"bydel":"Fyllingsdalen","kommune":"Bergen","osm_id":5900512}},
{"type":"Feature","geometry":{"type":"Polygon","coordinates":[[[5.2759,60.4076],[5.2603,60.4023],[5.2364,60.4033],[5.1701,60.3818],[5.166,60.3726],[5.1693,60.3666],[5.1717,60.3407],[5.1913,60.3356],[5.2032,60.3214],[5.2476,60.3271],[5.2462,60.3289],[5.2426,60.3368],[5.2433,60.3381],[5.2451,60.3401],[5.2469,60.3402],[5.248,60.3406],[5.2476,60.3414],[5.2489,60.3444],[5.2517,60.348],[5.2535,60.3502],[5.2612,60.3562],[5.2738,60.3622],[5.276,60.3752],[5.2953,60.3741],[5.2997,60.3736],[5.2989,60.3729],[5.2989,60.3712],[5.2983,60.3697],[5.2994,60.3693],[5.3016,60.3695],[5.3036,60.3707],[5.3051,60.3703],[5.3058,60.369],[5.3168,60.369],[5.3147,60.3756],[5.3112,60.3725],[5.3091,60.3768],[5.3126,60.3793],[5.3141,60.3806],[5.3133,60.3813],[5.3166,60.3837],[5.3042,60.3885],[5.3013,60.3901],[5.2759,60.4076]]]},"properties":{"bydel":"Laksevåg","kommune":"Bergen","osm_id":5900513}},
{"type":"Feature","geometry":{"type":"Polygon","coordinates":[[[5.2476,60.3271],[5.2032,60.3214],[5.19,60.2893],[5.1877,60.2744],[5.1611,60.2754],[5.1446,60.2639],[5.1555,60.2537],[5.2025,60.2508],[5.2206,60.2588],[5.233,60.2553],[5.2272,60.2482],[5.2275,60.2381],[5.238,60.23],[5.2324,60.2245],[5.2434,60.2246],[5.279,60.2392],[5.2913,60.2559],[5.2923,60.2573],[5.2924,60.2597],[5.2927,60.2608],[5.2925,60.2641],[5.2916,60.265],[5.2913,60.2667],[5.2899,60.2677],[5.2926,60.2705],[5.295,60.2725],[5.2965,60.2739],[5.3,60.2741],[5.3091,60.2752],[5.3059,60.2799],[5.3076,60.2808],[5.3097,60.2813],[5.3104,60.2811],[5.3124,60.2813],[5.3146,60.281],[5.3152,60.2819],[5.3141,60.2833],[5.3181,60.2834],[5.3183,60.2837],[5.3244,60.2845],[5.3254,60.2845],[5.3252,60.2864],[5.3254,60.291],[5.3242,60.2935],[5.3237,60.2938],[5.3259,60.2953],[5.3289,60.3],[5.3276,60.304],[5.3276,60.3057],[5.3287,60.3085],[5.3275,60.3091],[5.3258,60.3126],[5.319,60.3153],[5.3101,60.3197],[5.2847,60.3194],[5.2792,60.323],[5.2742,60.3227],[5.2711,60.3216],[5.2689,60.321],[5.266,60.3213],[5.2636,60.321],[5.2567,60.3188],[5.251,60.3229],[5.2476,60.3271]]]},"properties":{"bydel":"Ytrebygda","kommune":"Bergen","osm_id":5900514}},
{"type":"Feature","geometry":{"type":"Polygon","coordinates":[[[5.3168,60.369],[5.3193,60.3614],[5.314,60.3586],[5.3138,60.3559],[5.3135,60.3542],[5.3127,60.3517],[5.3123,60.3499],[5.3208,60.3503],[5.3327,60.3497],[5.3358,60.3492],[5.3372,60.3494],[5.3378,60.352],[5.3394,60.3519],[5.3421,60.3512],[5.3436,60.3516],[5.3442,60.3521],[5.3459,60.3521],[5.3488,60.3516],[5.3501,60.3496],[5.3499,60.3474],[5.3515,60.3461],[5.3519,60.345],[5.3534,60.344],[5.3556,60.3418],[5.3567,60.3412],[5.3589,60.3413],[5.36,60.3419],[5.3603,60.3397],[5.3624,60.3394],[5.3638,60.3395],[5.3634,60.3406],[5.366,60.3414],[5.3699,60.339],[5.3717,60.3398],[5.3721,60.3403],[5.3743,60.3418],[5.3736,60.342],[5.3756,60.3434],[5.3773,60.3443],[5.3783,60.3471],[5.378,60.3478],[5.3792,60.35],[5.3783,60.3503],[5.3783,60.3515],[5.3824,60.3552],[5.3932,60.3616],[5.4064,60.3658],[5.4111,60.3717],[5.4071,60.3727],[5.4064,60.3724],[5.3967,60.3732],[5.3867,60.3746],[5.3739,60.3763],[5.3675,60.3747],[5.3664,60.3738],[5.3646,60.3729],[5.3633,60.3711],[5.3614,60.3713],[5.3603,60.3711],[5.3596,60.3719],[5.3577,60.3721],[5.355,60.3738],[5.3536,60.374],[5.3515,60.3746],[5.3521,60.3761],[5.3514,60.3764],[5.3466,60.3777],[5.3457,60.3783],[5.3464,60.3792],[5.3453,60.3795],[5.3438,60.3811],[5.3419,60.3807],[5.3351,60.3801],[5.332,60.38],[5.325,60.3805],[5.3224,60.3816],[5.3166,60.3837],[5.3133,60.3813],[5.3141,60.3806],[5.3126,60.3793],[5.3091,60.3768],[5.3112,60.3725],[5.3147,60.3756],[5.3168,60.369]]]},"properties":{"bydel":"Årstad","kommune":"Bergen","osm_id":5900515}},
{"type":"Feature","geometry":{"type":"Polygon","coordinates":[[[5.2611,60.4413],[5.2772,60.4437],[5.2814,60.4414],[5.2846,60.4399],[5.286,60.4401],[5.2879,60.44],[5.2913,60.4388],[5.293,60.4373],[5.2931,60.4362],[5.2923,60.4358],[5.295,60.4343],[5.3003,60.4342],[5.3133,60.429],[5.3221,60.4291],[5.3407,60.4238],[5.3497,60.4189],[5.3569,60.4164],[5.3665,60.413],[5.375,60.4162],[5.3869,60.4162],[5.3909,60.4148],[5.3939,60.4145],[5.4013,60.4105],[5.4101,60.4123],[5.4129,60.4132],[5.4112,60.415],[5.4067,60.4176],[5.387,60.4277],[5.3972,60.4352],[5.3943,60.4385],[5.3919,60.4408],[5.388,60.444],[5.3813,60.4517],[5.3866,60.4537],[5.3915,60.4552],[5.3949,60.4562],[5.4,60.4578],[5.4124,60.4623],[5.4132,60.4643],[5.415,60.466],[5.4138,60.466],[5.4145,60.4679],[5.4182,60.4687],[5.4217,60.4691],[5.4228,60.4696],[5.4271,60.47],[5.4387,60.4735],[5.3815,60.5121],[5.335,60.5258],[5.3174,60.5361],[5.2876,60.5329],[5.2615,60.5236],[5.2627,60.5147],[5.2372,60.4954],[5.2432,60.4713],[5.2611,60.4413]]]},"properties":{"bydel":"Åsane","kommune":"Bergen","osm_id":5900516}},
{"type":"Feature","geometry":{"type":"Polygon","coordinates":[[[10.5474,63.4963],[10.4903,63.4852],[10.4213,63.4693],[10.4171,63.4615],[10.4176,63.4605],[10.4169,63.4576],[10.4177,63.4502],[10.418,63.4466],[10.4143,63.443],[10.4099,63.4384],[10.4078,63.4353],[10.4072,63.4348],[10.402,63.4287],[10.4018,63.4282],[10.404,63.428],[10.4048,63.4263],[10.4057,63.4261],[10.4069,63.427],[10.4096,63.4268],[10.4096,63.4292],[10.4094,63.43],[10.4125,63.4306],[10.4153,63.429],[10.4161,63.429],[10.4169,63.4259],[10.4189,63.4263],[10.4227,63.4278],[10.4226,63.4283],[10.4238,63.4294],[10.4249,63.4294],[10.4259,63.4301],[10.4274,63.4299],[10.4308,63.4297],[10.4316,63.4292],[10.4325,63.4277],[10.4331,63.4274],[10.4371,63.4273],[10.4424,63.4273],[10.4436,63.4264],[10.4428,63.4256],[10.4445,63.4251],[10.4491,63.4249],[10.4511,63.4245],[10.4538,63.4253],[10.4597,63.4238],[10.4586,63.4218],[10.4601,63.4202],[10.4601,63.4185],[10.4636,63.4201],[10.4664,63.4181],[10.4669,63.4166],[10.4664,63.4156],[10.4655,63.4154],[10.4634,63.4129],[10.4636,63.412],[10.4653,63.4123],[10.4745,63.4129],[10.4768,63.4119],[10.4753,63.4101],[10.4807,63.41],[10.4797,63.408],[10.4795,63.4061],[10.4788,63.4043],[10.4793,63.4036],[10.4781,63.4023],[10.484,63.4009],[10.49,63.3986],[10.4939,63.3974],[10.4958,63.3978],[10.4989,63.3976],[10.5011,63.3935],[10.499,63.3924],[10.4973,63.3905],[10.4963,63.3887],[10.4952,63.3879],[10.4945,63.387],[10.493,63.3862],[10.4934,63.3841],[10.4948,63.3824],[10.4972,63.3809],[10.4999,63.3784],[10.5023,63.3787],[10.5055,63.3784],[10.5107,63.3784],[10.5121,63.378],[10.5131,63.3768],[10.5097,63.3743],[10.5152,63.371],[10.5138,63.3704],[10.515,63.3696],[10.5163,63.3699],[10.5205,63.3692],[10.5257,63.3679],[10.5312,63.3667],[10.5362,63.3654],[10.542,63.3642],[10.5475,63.3629],[10.5514,63.3623],[10.5525,63.3614],[10.5579,63.3595],[10.5594,63.3591],[10.5641,63.3589],[10.5762,63.3588],[10.5814,63.3614],[10.5865,63.3638],[10.594,63.367],[10.5977,63.3654],[10.6041,63.363],[10.6113,63.3606],[10.6139,63.3595],[10.63,63.3524],[10.6334,63.3507],[10.6329,63.3493],[10.6356,63.346],[10.6377,63.3428],[10.6375,63.3365],[10.6349,63.3267],[10.6371,63.3264],[10.6292,63.3218],[10.6239,63.3205],[10.6206,63.3171],[10.6263,63.3161],[10.6352,63.3151],[10.6501,63.3145],[10.6545,63.3142],[10.6686,63.3142],[10.6767,63.313],[10.6797,63.3126],[10.6885,63.312],[10.6975,63.3107],[10.7052,63.3096],[10.7099,63.3092],[10.7125,63.3091],[10.7205,63.3082],[10.7252,63.3068],[10.7207,63.3091],[10.7151,63.3113],[10.7073,63.3146],[10.7036,63.3159],[10.6991,63.3186],[10.6925,63.3228],[10.6885,63.3266],[10.6873,63.3291],[10.6873,63.3302],[10.7021,63.3466],[10.6908,63.3517],[10.6882,63.3527],[10.6795,63.3562],[10.6718,63.3625],[10.6716,63.3626],[10.6394,63.3527],[10.6393,63.3541],[10.6414,63.3545],[10.6414,63.3551],[10.6437,63.3553],[10.6449,63.3562],[10.6459,63.3563],[10.646,63.3571],[10.6505,63.3579],[10.6516,63.3584],[10.6548,63.3584],[10.6576,63.3592],[10.6587,63.3617],[10.6581,63.3629],[10.6572,63.3637],[10.6521,63.365],[10.6507,63.365],[10.6479,63.3692],[10.646,63.371],[10.634,63.373],[10.6315,63.3733],[10.6198,63.3738],[10.6174,63.3735],[10.6136,63.3741],[10.6114,63.3739],[10.6104,63.3745],[10.6106,63.3751],[10.6129,63.3763],[10.6156,63.3768],[10.6165,63.3774],[10.6202,63.3781],[10.6226,63.3781],[10.6116,63.3886],[10.6106,63.3928],[10.6166,63.3986],[10.6156,63.3991],[10.6116,63.3992],[10.6122,63.4003],[10.6122,63.4023],[10.6117,63.4037],[10.6101,63.4051],[10.6079,63.4061],[10.6068,63.407],[10.603,63.4097],[10.6008,63.4094],[10.5962,63.409],[10.5897,63.4086],[10.5887,63.4089],[10.5863,63.4104],[10.5831,63.4118],[10.5865,63.4139],[10.5881,63.4165],[10.5898,63.4177],[10.5901,63.4184],[10.5959,63.4198],[10.5956,63.4231],[10.5936,63.4255],[10.592,63.4264],[10.5933,63.4274],[10.5944,63.4288],[10.5956,63.4296],[10.5908,63.4331],[10.5856,63.4361],[10.5828,63.4379],[10.5393,63.4696],[10.5503,63.4953],[10.5474,63.4963]]]},"properties":{"bydel":"Østbyen","kommune":"Trondheim","osm_id":7555525}},
{"type":"Feature","geometry":{"type":"Polygon","coordinates":[[[10.2863,63.3839],[10.2861,63.383],[10.2847,63.3805],[10.285,63.3797],[10.2848,63.3779],[10.2861,63.3746],[10.2865,63.3731],[10.2844,63.371],[10.2873,63.3694],[10.289,63.3691],[10.2951,63.3688],[10.2981,63.3675],[10.2993,63.3666],[10.3003,63.3664],[10.3041,63.3673],[10.3065,63.3677],[10.3059,63.3661],[10.3084,63.3657],[10.31,63.3659],[10.3093,63.3671],[10.3104,63.3675],[10.3117,63.3663],[10.3144,63.3651],[10.3176,63.365],[10.3201,63.3646],[10.3214,63.3651],[10.3233,63.365],[10.3253,63.3653],[10.327,63.366],[10.3289,63.3675],[10.3317,63.3678],[10.3357,63.3678],[10.3366,63.3687],[10.3356,63.3691],[10.3371,63.3703],[10.3379,63.3714],[10.3418,63.3707],[10.3466,63.3703],[10.3501,63.3703],[10.3519,63.3719],[10.3524,63.3729],[10.3515,63.3734],[10.3528,63.3744],[10.3565,63.3755],[10.3574,63.3746],[10.3599,63.3735],[10.3637,63.3726],[10.3651,63.3717],[10.3656,63.3708],[10.3727,63.3704],[10.3761,63.3702],[10.3811,63.3705],[10.3815,63.3697],[10.3824,63.3693],[10.3824,63.3679],[10.3849,63.3676],[10.3905,63.3674],[10.3928,63.3667],[10.3945,63.365],[10.3946,63.3643],[10.3971,63.3636],[10.4003,63.3634],[10.404,63.3636],[10.4047,63.3638],[10.4081,63.3644],[10.4113,63.3658],[10.4137,63.3665],[10.417,63.3668],[10.4185,63.3658],[10.4217,63.3645],[10.423,63.3637],[10.425,63.3613],[10.4261,63.3584],[10.4283,63.3567],[10.4317,63.3519],[10.433,63.3508],[10.4364,63.3487],[10.4375,63.3475],[10.4389,63.3444],[10.4387,63.3433],[10.4376,63.3414],[10.4392,63.3399],[10.4432,63.3385],[10.4431,63.3392],[10.4439,63.3396],[10.4457,63.3392],[10.4477,63.3391],[10.449,63.3387],[10.4504,63.3375],[10.4557,63.3379],[10.4565,63.3377],[10.4587,63.3385],[10.4593,63.339],[10.4614,63.3388],[10.4624,63.3392],[10.4639,63.3392],[10.4665,63.3399],[10.4685,63.34],[10.4699,63.3408],[10.4732,63.3409],[10.4742,63.3406],[10.4785,63.34],[10.4803,63.3401],[10.4814,63.3404],[10.4824,63.34],[10.4855,63.3398],[10.4868,63.3399],[10.4921,63.3391],[10.4985,63.3389],[10.5003,63.3383],[10.5055,63.3387],[10.5065,63.3394],[10.5088,63.34],[10.5108,63.3398],[10.511,63.3394],[10.5128,63.3388],[10.5137,63.338],[10.5155,63.3378],[10.5186,63.3373],[10.5212,63.3372],[10.5294,63.3356],[10.5357,63.3351],[10.5412,63.3356],[10.5425,63.3353],[10.543,63.3344],[10.5441,63.3341],[10.5439,63.3335],[10.5462,63.3336],[10.5482,63.3341],[10.5499,63.3339],[10.5512,63.3328],[10.5528,63.3323],[10.5539,63.3316],[10.5615,63.3294],[10.5677,63.3278],[10.5708,63.3268],[10.5812,63.3242],[10.5823,63.3238],[10.5841,63.3237],[10.5863,63.3232],[10.592,63.3215],[10.6075,63.3179],[10.6152,63.3179],[10.6206,63.3171],[10.6239,63.3205],[10.6292,63.3218],[10.6371,63.3264],[10.6349,63.3267],[10.6375,63.3365],[10.6377,63.3428],[10.6356,63.346],[10.6329,63.3493],[10.6334,63.3507],[10.63,63.3524],[10.6139,63.3595],[10.6113,63.3606],[10.6041,63.363],[10.5977,63.3654],[10.594,63.367],[10.5865,63.3638],[10.5814,63.3614],[10.5762,63.3588],[10.5641,63.3589],[10.5594,63.3591],[10.5579,63.3595],[10.5525,63.3614],[10.5514,63.3623],[10.5475,63.3629],[10.542,63.3642],[10.5362,63.3654],[10.5312,63.3667],[10.5257,63.3679],[10.5205,63.3692],[10.5163,63.3699],[10.515,63.3696],[10.5138,63.3704],[10.5152,63.371],[10.5097,63.3743],[10.5131,63.3768],[10.5121,63.378],[10.5107,63.3784],[10.5055,63.3784],[10.5023,63.3787],[10.4999,63.3784],[10.4972,63.3809],[10.4948,63.3824],[10.4934,63.3841],[10.493,63.3862],[10.4945,63.387],[10.4952,63.3879],[10.4963,63.3887],[10.4973,63.3905],[10.499,63.3924],[10.5011,63.3935],[10.4989,63.3976],[10.4958,63.3978],[10.4939,63.3974],[10.49,63.3986],[10.484,63.4009],[10.4781,63.4023],[10.4793,63.4036],[10.4788,63.4043],[10.4795,63.4061],[10.4797,63.408],[10.4807,63.41],[10.4753,63.4101],[10.4768,63.4119],[10.4745,63.4129],[10.4653,63.4123],[10.4636,63.412],[10.4634,63.4129],[10.4655,63.4154],[10.4664,63.4156],[10.4669,63.4166],[10.4664,63.4181],[10.4636,63.4201],[10.4601,63.4185],[10.4601,63.4202],[10.4586,63.4218],[10.4597,63.4238],[10.4538,63.4253],[10.4511,63.4245],[10.4491,63.4249],[10.4445,63.4251],[10.4428,63.4256],[10.4436,63.4264],[10.4424,63.4273],[10.4371,63.4273],[10.4331,63.4274],[10.4325,63.4277],[10.4316,63.4273],[10.4262,63.4269],[10.4222,63.4268],[10.4215,63.425],[10.4203,63.4235],[10.4171,63.421],[10.4136,63.419],[10.4117,63.4167],[10.4114,63.4148],[10.4117,63.4141],[10.4039,63.4132],[10.3954,63.4125],[10.3952,63.412],[10.3925,63.4113],[10.3896,63.4111],[10.3883,63.4106],[10.388,63.4095],[10.3903,63.4083],[10.3905,63.4076],[10.3897,63.4048],[10.3902,63.4021],[10.3899,63.4001],[10.3861,63.3953],[10.3836,63.3936],[10.3812,63.3906],[10.3734,63.3853],[10.3735,63.3844],[10.3711,63.3834],[10.3683,63.3838],[10.3673,63.3845],[10.3656,63.3843],[10.3657,63.3834],[10.3628,63.3833],[10.3621,63.3835],[10.3622,63.3844],[10.3595,63.3849],[10.3591,63.3844],[10.3572,63.3848],[10.3546,63.3835],[10.3505,63.3836],[10.3498,63.3841],[10.3476,63.3844],[10.3477,63.3837],[10.344,63.3836],[10.3432,63.3833],[10.3415,63.3839],[10.3356,63.3826],[10.3312,63.3824],[10.3267,63.3834],[10.3237,63.3829],[10.3225,63.3834],[10.3218,63.3828],[10.3204,63.3829],[10.3173,63.3824],[10.3162,63.3828],[10.3108,63.3827],[10.3084,63.3831],[10.3009,63.3829],[10.2976,63.383],[10.2966,63.3833],[10.2863,63.3839]]]},"properties":{"bydel":"Lerkendal","kommune":"Trondheim","osm_id":7555526}},
{"type":"Feature","geometry":{"type":"Polygon","coordinates":[[[10.4325,63.4277],[10.4316,63.4292],[10.4308,63.4297],[10.4274,63.4299],[10.4259,63.4301],[10.4249,63.4294],[10.4238,63.4294],[10.4226,63.4283],[10.4227,63.4278],[10.4189,63.4263],[10.4169,63.4259],[10.4161,63.429],[10.4153,63.429],[10.4125,63.4306],[10.4094,63.43],[10.4096,63.4292],[10.4096,63.4268],[10.4069,63.427],[10.4057,63.4261],[10.4048,63.4263],[10.404,63.428],[10.4018,63.4282],[10.402,63.4287],[10.4072,63.4348],[10.4078,63.4353],[10.4099,63.4384],[10.4143,63.443],[10.418,63.4466],[10.4177,63.4502],[10.4169,63.4576],[10.4176,63.4605],[10.4171,63.4615],[10.4213,63.4693],[10.4903,63.4852],[10.5474,63.4963],[10.4886,63.5166],[10.3566,63.5092],[10.2348,63.4956],[10.1875,63.4834],[10.2181,63.4572],[10.223,63.4526],[10.2236,63.4513],[10.2245,63.4509],[10.2233,63.4496],[10.2222,63.4491],[10.2232,63.4475],[10.2267,63.4463],[10.2313,63.4475],[10.2371,63.444],[10.2472,63.4377],[10.2469,63.4368],[10.2518,63.4336],[10.2521,63.4221],[10.2508,63.4217],[10.2508,63.4206],[10.2518,63.4205],[10.2494,63.4152],[10.2477,63.4112],[10.2476,63.4098],[10.2427,63.4046],[10.2416,63.4012],[10.2407,63.3976],[10.2415,63.394],[10.2435,63.3904],[10.2447,63.3893],[10.2451,63.3884],[10.2437,63.3874],[10.2461,63.3869],[10.2474,63.386],[10.2484,63.3868],[10.26,63.3849],[10.2606,63.3846],[10.2625,63.385],[10.2657,63.3846],[10.2863,63.3839],[10.2966,63.3833],[10.2976,63.383],[10.3009,63.3829],[10.3084,63.3831],[10.3108,63.3827],[10.3162,63.3828],[10.3173,63.3824],[10.3204,63.3829],[10.3218,63.3828],[10.3225,63.3834],[10.3237,63.3829],[10.3267,63.3834],[10.3312,63.3824],[10.3356,63.3826],[10.3415,63.3839],[10.3432,63.3833],[10.344,63.3836],[10.3477,63.3837],[10.3476,63.3844],[10.3498,63.3841],[10.3505,63.3836],[10.3546,63.3835],[10.3572,63.3848],[10.3591,63.3844],[10.3595,63.3849],[10.3622,63.3844],[10.3621,63.3835],[10.3628,63.3833],[10.3657,63.3834],[10.3656,63.3843],[10.3673,63.3845],[10.3683,63.3838],[10.3711,63.3834],[10.3735,63.3844],[10.3734,63.3853],[10.3812,63.3906],[10.3836,63.3936],[10.3861,63.3953],[10.3899,63.4001],[10.3902,63.4021],[10.3897,63.4048],[10.3905,63.4076],[10.3903,63.4083],[10.388,63.4095],[10.3883,63.4106],[10.3896,63.4111],[10.3925,63.4113],[10.3952,63.412],[10.3954,63.4125],[10.4039,63.4132],[10.4117,63.4141],[10.4114,63.4148],[10.4117,63.4167],[10.4136,63.419],[10.4171,63.421],[10.4203,63.4235],[10.4215,63.425],[10.4222,63.4268],[10.4262,63.4269],[10.4316,63.4273],[10.4325,63.4277]]]},"properties":{"bydel":"Midtbyen","kommune":"Trondheim","osm_id":7555527}},
{"type":"Feature","geometry":{"type":"Polygon","coordinates":[[[10.6206,63.3171],[10.6152,63.3179],[10.6075,63.3179],[10.592,63.3215],[10.5863,63.3232],[10.5841,63.3237],[10.5823,63.3238],[10.5812,63.3242],[10.5708,63.3268],[10.5677,63.3278],[10.5615,63.3294],[10.5539,63.3316],[10.5528,63.3323],[10.5512,63.3328],[10.5499,63.3339],[10.5482,63.3341],[10.5462,63.3336],[10.5439,63.3335],[10.5441,63.3341],[10.543,63.3344],[10.5425,63.3353],[10.5412,63.3356],[10.5357,63.3351],[10.5294,63.3356],[10.5212,63.3372],[10.5186,63.3373],[10.5155,63.3378],[10.5137,63.338],[10.5128,63.3388],[10.511,63.3394],[10.5108,63.3398],[10.5088,63.34],[10.5065,63.3394],[10.5055,63.3387],[10.5003,63.3383],[10.4985,63.3389],[10.4921,63.3391],[10.4868,63.3399],[10.4855,63.3398],[10.4824,63.34],[10.4814,63.3404],[10.4803,63.3401],[10.4785,63.34],[10.4742,63.3406],[10.4732,63.3409],[10.4699,63.3408],[10.4685,63.34],[10.4665,63.3399],[10.4639,63.3392],[10.4624,63.3392],[10.4614,63.3388],[10.4593,63.339],[10.4587,63.3385],[10.4565,63.3377],[10.4557,63.3379],[10.4504,63.3375],[10.449,63.3387],[10.4477,63.3391],[10.4457,63.3392],[10.4439,63.3396],[10.4431,63.3392],[10.4432,63.3385],[10.4392,63.3399],[10.4376,63.3414],[10.4387,63.3433],[10.4389,63.3444],[10.4375,63.3475],[10.4364,63.3487],[10.433,63.3508],[10.4317,63.3519],[10.4283,63.3567],[10.4261,63.3584],[10.425,63.3613],[10.423,63.3637],[10.4217,63.3645],[10.4185,63.3658],[10.417,63.3668],[10.4137,63.3665],[10.4113,63.3658],[10.4081,63.3644],[10.4047,63.3638],[10.404,63.3636],[10.4003,63.3634],[10.3971,63.3636],[10.3946,63.3643],[10.3945,63.365],[10.3928,63.3667],[10.3905,63.3674],[10.3849,63.3676],[10.3824,63.3679],[10.3824,63.3693],[10.3815,63.3697],[10.3811,63.3705],[10.3761,63.3702],[10.3727,63.3704],[10.3656,63.3708],[10.3651,63.3717],[10.3637,63.3726],[10.3599,63.3735],[10.3574,63.3746],[10.3565,63.3755],[10.3528,63.3744],[10.3515,63.3734],[10.3524,63.3729],[10.3519,63.3719],[10.3501,63.3703],[10.3466,63.3703],[10.3418,63.3707],[10.3379,63.3714],[10.3371,63.3703],[10.3356,63.3691],[10.3366,63.3687],[10.3357,63.3678],[10.3317,63.3678],[10.3289,63.3675],[10.327,63.366],[10.3253,63.3653],[10.3233,63.365],[10.3214,63.3651],[10.3201,63.3646],[10.3176,63.365],[10.3144,63.3651],[10.3117,63.3663],[10.3104,63.3675],[10.3093,63.3671],[10.31,63.3659],[10.3084,63.3657],[10.3059,63.3661],[10.3065,63.3677],[10.3041,63.3673],[10.3003,63.3664],[10.2993,63.3666],[10.2981,63.3675],[10.2951,63.3688],[10.289,63.3691],[10.2873,63.3694],[10.2844,63.371],[10.2865,63.3731],[10.2861,63.3746],[10.2848,63.3779],[10.285,63.3797],[10.2847,63.3805],[10.2861,63.383],[10.2863,63.3839],[10.2657,63.3846],[10.2625,63.385],[10.2606,63.3846],[10.26,63.3849],[10.2484,63.3868],[10.2474,63.386],[10.2461,63.3869],[10.2437,63.3874],[10.2451,63.3884],[10.2447,63.3893],[10.2435,63.3904],[10.2415,63.394],[10.2407,63.3976],[10.2416,63.4012],[10.2427,63.4046],[10.2476,63.4098],[10.2477,63.4112],[10.2494,63.4152],[10.2518,63.4205],[10.2508,63.4206],[10.2508,63.4217],[10.2521,63.4221],[10.2518,63.4336],[10.2469,63.4368],[10.2472,63.4377],[10.2371,63.444],[10.2313,63.4475],[10.2267,63.4463],[10.2232,63.4475],[10.2222,63.4491],[10.2233,63.4496],[10.2245,63.4509],[10.2236,63.4513],[10.223,63.4526],[10.2181,63.4572],[10.1875,63.4834],[10.1062,63.4623],[10.0541,63.4546],[10.0197,63.4122],[10.0035,63.373],[10.0649,63.3579],[10.0947,63.3415],[10.1639,63.3305],[10.1881,63.3325],[10.1997,63.3396],[10.2156,63.3446],[10.2453,63.3407],[10.2529,63.339],[10.255,63.3397],[10.2601,63.3294],[10.2585,63.3296],[10.2613,63.3254],[10.2669,63.3232],[10.2726,63.3208],[10.2775,63.3207],[10.2774,63.3185],[10.2801,63.3167],[10.2812,63.3157],[10.281,63.3149],[10.2866,63.3146],[10.2871,63.3162],[10.2953,63.315],[10.2911,63.309],[10.2994,63.3076],[10.3037,63.3049],[10.3061,63.305],[10.3078,63.3054],[10.3142,63.304],[10.3199,63.3048],[10.3236,63.3067],[10.3242,63.3071],[10.3273,63.3108],[10.3315,63.3124],[10.334,63.3127],[10.334,63.3133],[10.3318,63.3144],[10.3303,63.3146],[10.3299,63.3152],[10.334,63.317],[10.3327,63.3182],[10.334,63.3186],[10.3367,63.3187],[10.3429,63.3196],[10.3481,63.3207],[10.3531,63.322],[10.3553,63.3224],[10.3568,63.3219],[10.3571,63.3203],[10.3577,63.32],[10.3603,63.3196],[10.3612,63.3193],[10.3614,63.3185],[10.3624,63.3171],[10.3693,63.3153],[10.3783,63.3134],[10.3858,63.3116],[10.3921,63.3076],[10.3952,63.3053],[10.3957,63.3047],[10.3994,63.3027],[10.3961,63.3004],[10.393,63.2987],[10.3938,63.2945],[10.3825,63.2875],[10.3793,63.2853],[10.3706,63.2799],[10.3634,63.271],[10.3564,63.2621],[10.3672,63.2588],[10.3864,63.2531],[10.3945,63.2508],[10.4394,63.2374],[10.4608,63.2311],[10.4711,63.228],[10.4908,63.2251],[10.4916,63.2256],[10.4953,63.2265],[10.5031,63.2244],[10.52,63.2212],[10.5221,63.2205],[10.5317,63.2181],[10.5365,63.217],[10.5403,63.2135],[10.595,63.185],[10.6325,63.1633],[10.6814,63.1606],[10.6949,63.1599],[10.6909,63.1699],[10.6864,63.1807],[10.6805,63.1965],[10.6776,63.2033],[10.6761,63.2136],[10.6745,63.2172],[10.6721,63.2225],[10.6711,63.2255],[10.6694,63.2275],[10.669,63.2289],[10.668,63.2342],[10.6658,63.2387],[10.6652,63.2392],[10.6624,63.2396],[10.6538,63.2362],[10.654,63.2387],[10.6547,63.241],[10.6568,63.2427],[10.6573,63.2435],[10.6579,63.246],[10.6578,63.2463],[10.6583,63.2482],[10.6595,63.2504],[10.6585,63.2523],[10.6588,63.254],[10.6583,63.2551],[10.6569,63.2566],[10.6563,63.2676],[10.6534,63.2683],[10.6248,63.2744],[10.6229,63.2749],[10.6229,63.2762],[10.6235,63.2778],[10.623,63.2788],[10.6233,63.2796],[10.6223,63.2818],[10.6216,63.2829],[10.6205,63.2838],[10.6214,63.2863],[10.625,63.2902],[10.643,63.2983],[10.6472,63.2999],[10.663,63.3063],[10.6678,63.3065],[10.6714,63.3063],[10.6732,63.3059],[10.6803,63.3066],[10.692,63.3066],[10.7176,63.3067],[10.7252,63.3068],[10.7205,63.3082],[10.7125,63.3091],[10.7099,63.3092],[10.7052,63.3096],[10.6975,63.3107],[10.6885,63.312],[10.6797,63.3126],[10.6767,63.313],[10.6686,63.3142],[10.6545,63.3142],[10.6501,63.3145],[10.6352,63.3151],[10.6263,63.3161],[10.6206,63.3171]]]},"properties":{"bydel":"Heimdal","kommune":"Trondheim","osm_id":7555528}}
]}